[{"name":"Ankunding Inc","address":"6 Anzinger Road","city":"Van Nuys","state":"California","postalCode":"91406","url":"https://cafepress.com"},
{"name":"Fadel, Harber and Stamm","address":"49937 Manufacturers Pass","city":"Los Angeles","state":"California","postalCode":"90065","url":"http://cpanel.net"},
{"name":"Waters Group","address":"12532 Del Sol Plaza","city":"Santa Ana","state":"California","postalCode":"92725","url":"http://icq.com"},
{"name":"Pouros, Erdman and Schoen","address":"6522 Fallview Parkway","city":"Madison","state":"Wisconsin","postalCode":"53705","url":"http://sciencedirect.com"},
{"name":"Gleason, Bogisich and Bayer","address":"844 1st Point","city":"Miami","state":"Florida","postalCode":"33164","url":"http://google.co.uk"},
{"name":"DuBuque Inc","address":"0 Springs Road","city":"Pensacola","state":"Florida","postalCode":"32505","url":"http://digg.com"},
{"name":"Mraz-Farrell","address":"41 Twin Pines Lane","city":"Fresno","state":"California","postalCode":"93786","url":"http://un.org"},
{"name":"Mraz, Kreiger and Wisozk","address":"97707 Dawn Avenue","city":"Orlando","state":"Florida","postalCode":"32808","url":"http://tmall.com"},
{"name":"Muller, Yost and Keeling","address":"5887 Pond Parkway","city":"Richmond","state":"Virginia","postalCode":"23242","url":"http://scribd.com"},
{"name":"Carter, Hickle and Cronin","address":"02 Fuller Court","city":"Washington","state":"District of Columbia","postalCode":"20409","url":"http://ucsd.edu"},
{"name":"Smitham, Hyatt and Ziemann","address":"652 Kipling Avenue","city":"Boise","state":"Idaho","postalCode":"83757","url":"https://opera.com"},
{"name":"Kris, Buckridge and Gerhold","address":"0113 Pepper Wood Street","city":"Montpelier","state":"Vermont","postalCode":"05609","url":"https://wunderground.com"},
{"name":"Kshlerin Group","address":"58242 Monica Way","city":"Baton Rouge","state":"Louisiana","postalCode":"70826","url":"https://vistaprint.com"},
{"name":"Lakin-Abshire","address":"1 Stuart Point","city":"Sacramento","state":"California","postalCode":"94263","url":"https://java.com"},
{"name":"Wilkinson-Blanda","address":"93365 Fairview Crossing","city":"Decatur","state":"Georgia","postalCode":"30033","url":"https://mozilla.com"},
{"name":"Smith Group","address":"57 Ridgeview Place","city":"Nashville","state":"Tennessee","postalCode":"37215","url":"https://taobao.com"},
{"name":"Cole, Borer and Cormier","address":"51377 Dorton Park","city":"Nashville","state":"Tennessee","postalCode":"37240","url":"https://cnn.com"},
{"name":"Mann, Halvorson and Kuhic","address":"8 Cordelia Way","city":"New York City","state":"New York","postalCode":"10125","url":"https://bbb.org"},
{"name":"Price-Dickens","address":"34 Amoth Park","city":"Charleston","state":"South Carolina","postalCode":"29416","url":"http://google.pl"},
{"name":"Hintz, Zboncak and Dare","address":"1 Golf Alley","city":"Memphis","state":"Tennessee","postalCode":"38136","url":"https://elpais.com"},
{"name":"Barrows, Schneider and Ryan","address":"57 Clove Center","city":"Baton Rouge","state":"Louisiana","postalCode":"70810","url":"https://msu.edu"},
{"name":"Runolfsdottir, Lowe and Cormier","address":"3 Clyde Gallagher Pass","city":"San Bernardino","state":"California","postalCode":"92424","url":"https://amazon.co.uk"},
{"name":"Harris and Sons","address":"87 Rieder Road","city":"San Antonio","state":"Texas","postalCode":"78205","url":"https://oakley.com"},
{"name":"Hickle-Gottlieb","address":"71518 Veith Plaza","city":"Washington","state":"District of Columbia","postalCode":"20220","url":"http://elegantthemes.com"},
{"name":"Runte, Schuster and Williamson","address":"94 Harper Park","city":"Atlanta","state":"Georgia","postalCode":"30323","url":"https://google.de"},
{"name":"Hane, Kertzmann and Schumm","address":"6424 Arapahoe Hill","city":"Baton Rouge","state":"Louisiana","postalCode":"70805","url":"https://reuters.com"},
{"name":"Bartell, Zemlak and Lehner","address":"9 Northfield Avenue","city":"Carson City","state":"Nevada","postalCode":"89706","url":"http://nature.com"},
{"name":"Mayert-Schmeler","address":"37 Magdeline Circle","city":"Miami","state":"Florida","postalCode":"33185","url":"http://furl.net"},
{"name":"Lemke-Huel","address":"876 Browning Road","city":"Peoria","state":"Illinois","postalCode":"61656","url":"http://cbsnews.com"},
{"name":"Mertz-Pfannerstill","address":"7 Sycamore Parkway","city":"Omaha","state":"Nebraska","postalCode":"68179","url":"http://angelfire.com"},
{"name":"Predovic, Bernier and Hirthe","address":"536 Dennis Hill","city":"Fresno","state":"California","postalCode":"93750","url":"https://typepad.com"},
{"name":"Feest and Sons","address":"2 Thierer Court","city":"Arlington","state":"Virginia","postalCode":"22244","url":"http://irs.gov"},
{"name":"Berge-Hickle","address":"417 Mcbride Circle","city":"Albuquerque","state":"New Mexico","postalCode":"87115","url":"https://cdbaby.com"},
{"name":"Willms Group","address":"361 Superior Junction","city":"San Antonio","state":"Texas","postalCode":"78235","url":"http://yellowbook.com"},
{"name":"Hansen-Hackett","address":"50 Vera Pass","city":"Augusta","state":"Georgia","postalCode":"30919","url":"https://canalblog.com"},
{"name":"Hoppe and Sons","address":"8139 Garrison Park","city":"Norcross","state":"Georgia","postalCode":"30092","url":"http://domainmarket.com"},
{"name":"Bailey and Sons","address":"3 Randy Alley","city":"Austin","state":"Texas","postalCode":"78715","url":"https://weebly.com"},
{"name":"Schimmel, Kuhlman and Abshire","address":"7 Novick Avenue","city":"Spartanburg","state":"South Carolina","postalCode":"29319","url":"https://reference.com"},
{"name":"Stiedemann-Harber","address":"0 Melrose Avenue","city":"Phoenix","state":"Arizona","postalCode":"85099","url":"https://csmonitor.com"},
{"name":"Simonis-Emard","address":"860 Corscot Pass","city":"Huntington Beach","state":"California","postalCode":"92648","url":"http://example.com"},
{"name":"Lakin LLC","address":"310 Nevada Way","city":"Philadelphia","state":"Pennsylvania","postalCode":"19151","url":"http://netvibes.com"},
{"name":"Nicolas, Grady and Marks","address":"081 Brickson Park Alley","city":"Scranton","state":"Pennsylvania","postalCode":"18514","url":"http://clickbank.net"},
{"name":"Stiedemann Group","address":"0 Waubesa Lane","city":"Portland","state":"Oregon","postalCode":"97271","url":"http://opera.com"},
{"name":"Sporer, Harber and Lesch","address":"5347 Fallview Plaza","city":"Bryan","state":"Texas","postalCode":"77806","url":"https://ask.com"},
{"name":"Feest Inc","address":"81 Warrior Circle","city":"New York City","state":"New York","postalCode":"10120","url":"https://apache.org"},
{"name":"Heller Inc","address":"653 Grim Lane","city":"Naples","state":"Florida","postalCode":"33963","url":"https://mtv.com"},
{"name":"Aufderhar-Brakus","address":"99 West Way","city":"Pittsburgh","state":"Pennsylvania","postalCode":"15274","url":"http://typepad.com"},
{"name":"Nader-Kshlerin","address":"28 Dapin Court","city":"Rochester","state":"New York","postalCode":"14604","url":"https://homestead.com"},
{"name":"Weimann-Ledner","address":"6 Vidon Street","city":"Texarkana","state":"Texas","postalCode":"75507","url":"http://thetimes.co.uk"},
{"name":"Bartoletti Group","address":"9426 Montana Hill","city":"Oklahoma City","state":"Oklahoma","postalCode":"73167","url":"http://xrea.com"},
{"name":"Runolfsdottir LLC","address":"45 Luster Point","city":"Las Vegas","state":"Nevada","postalCode":"89115","url":"http://miibeian.gov.cn"},
{"name":"Huel-Friesen","address":"2 Shoshone Trail","city":"Tulsa","state":"Oklahoma","postalCode":"74116","url":"http://telegraph.co.uk"},
{"name":"Botsford, Renner and Monahan","address":"74880 Waxwing Parkway","city":"Tampa","state":"Florida","postalCode":"33680","url":"http://uiuc.edu"},
{"name":"Effertz LLC","address":"76 Annamark Drive","city":"Reading","state":"Pennsylvania","postalCode":"19605","url":"http://wikispaces.com"},
{"name":"Collier-Zboncak","address":"3012 Rowland Drive","city":"Dulles","state":"Virginia","postalCode":"20189","url":"http://vinaora.com"},
{"name":"Quigley, Rogahn and Mosciski","address":"7 Mayer Crossing","city":"Seattle","state":"Washington","postalCode":"98115","url":"http://tuttocitta.it"},
{"name":"Kerluke Group","address":"9512 Hanson Place","city":"Kansas City","state":"Kansas","postalCode":"66160","url":"https://mysql.com"},
{"name":"Jenkins-Ankunding","address":"0346 Prairieview Lane","city":"Albany","state":"New York","postalCode":"12255","url":"http://buzzfeed.com"},
{"name":"Bernier, Hayes and Luettgen","address":"8 Arrowood Road","city":"Anaheim","state":"California","postalCode":"92805","url":"https://discovery.com"},
{"name":"Farrell Inc","address":"0947 Arizona Pass","city":"Fort Collins","state":"Colorado","postalCode":"80525","url":"http://yolasite.com"},
{"name":"Mante, Gislason and Upton","address":"88 Rieder Drive","city":"Washington","state":"District of Columbia","postalCode":"20041","url":"http://goodreads.com"},
{"name":"Rau Inc","address":"60 Randy Avenue","city":"San Diego","state":"California","postalCode":"92196","url":"https://craigslist.org"},
{"name":"Douglas Group","address":"641 Eagan Point","city":"Louisville","state":"Kentucky","postalCode":"40233","url":"https://ustream.tv"},
{"name":"Halvorson, Satterfield and Koepp","address":"95 Farwell Junction","city":"Glendale","state":"Arizona","postalCode":"85305","url":"https://prlog.org"},
{"name":"Schuppe, Wilderman and Mann","address":"5 Ryan Trail","city":"Saint Louis","state":"Missouri","postalCode":"63131","url":"http://yellowpages.com"},
{"name":"Moen, Sanford and Treutel","address":"677 Dottie Circle","city":"San Antonio","state":"Texas","postalCode":"78245","url":"https://gizmodo.com"},
{"name":"Bode, Will and Hartmann","address":"25 Bunting Drive","city":"Iowa City","state":"Iowa","postalCode":"52245","url":"http://indiatimes.com"},
{"name":"Parker, Stanton and Hermann","address":"3718 Scofield Lane","city":"Santa Fe","state":"New Mexico","postalCode":"87505","url":"http://irs.gov"},
{"name":"Jenkins-Kshlerin","address":"7175 Lakeland Crossing","city":"Charleston","state":"West Virginia","postalCode":"25356","url":"http://1und1.de"},
{"name":"Gibson Group","address":"26158 Eastlawn Park","city":"Buffalo","state":"New York","postalCode":"14215","url":"https://mlb.com"},
{"name":"Schmeler-Ondricka","address":"3 Lien Drive","city":"Minneapolis","state":"Minnesota","postalCode":"55446","url":"https://cbc.ca"},
{"name":"Beatty Group","address":"4 Harbort Pass","city":"Washington","state":"District of Columbia","postalCode":"20414","url":"https://reuters.com"},
{"name":"Beatty-Pfeffer","address":"4 Schurz Lane","city":"Atlanta","state":"Georgia","postalCode":"30392","url":"https://dmoz.org"},
{"name":"Barrows-Metz","address":"5 Dahle Circle","city":"Los Angeles","state":"California","postalCode":"90071","url":"https://discovery.com"},
{"name":"Tromp Inc","address":"8 Barnett Way","city":"Birmingham","state":"Alabama","postalCode":"35231","url":"https://edublogs.org"},
{"name":"Braun Group","address":"85617 Kedzie Terrace","city":"Allentown","state":"Pennsylvania","postalCode":"18105","url":"http://google.com.au"},
{"name":"Morissette-Green","address":"50562 Meadow Valley Parkway","city":"Albuquerque","state":"New Mexico","postalCode":"87105","url":"https://plala.or.jp"},
{"name":"Jast, Gusikowski and Kautzer","address":"90620 Kenwood Way","city":"Durham","state":"North Carolina","postalCode":"27705","url":"https://vistaprint.com"},
{"name":"Wyman and Sons","address":"02038 Moose Crossing","city":"Boston","state":"Massachusetts","postalCode":"02283","url":"https://zdnet.com"},
{"name":"Kunde LLC","address":"940 Waxwing Trail","city":"Waco","state":"Texas","postalCode":"76705","url":"http://guardian.co.uk"},
{"name":"Hayes, Kautzer and Koch","address":"66897 Reindahl Park","city":"Arlington","state":"Texas","postalCode":"76016","url":"http://dropbox.com"},
{"name":"Leffler and Sons","address":"676 Duke Place","city":"Pasadena","state":"California","postalCode":"91186","url":"http://kickstarter.com"},
{"name":"Stamm LLC","address":"5 Leroy Alley","city":"Spring","state":"Texas","postalCode":"77386","url":"http://angelfire.com"},
{"name":"Swift-Grant","address":"995 Service Junction","city":"Columbus","state":"Mississippi","postalCode":"39705","url":"http://prlog.org"},
{"name":"Jakubowski-Deckow","address":"21189 Ilene Lane","city":"Anderson","state":"Indiana","postalCode":"46015","url":"http://psu.edu"},
{"name":"Walker, DuBuque and Wilderman","address":"6 Shoshone Street","city":"Pasadena","state":"California","postalCode":"91117","url":"http://livejournal.com"},
{"name":"Bins LLC","address":"1656 Westend Circle","city":"Des Moines","state":"Iowa","postalCode":"50335","url":"http://taobao.com"},
{"name":"Eichmann LLC","address":"7220 Lerdahl Avenue","city":"Washington","state":"District of Columbia","postalCode":"20414","url":"https://cnet.com"},
{"name":"Purdy Group","address":"9 Lakewood Plaza","city":"Palatine","state":"Illinois","postalCode":"60078","url":"https://google.it"},
{"name":"Rice, Kemmer and Funk","address":"366 Becker Hill","city":"Austin","state":"Texas","postalCode":"78703","url":"https://uiuc.edu"},
{"name":"Lowe-Labadie","address":"243 Mockingbird Trail","city":"Indianapolis","state":"Indiana","postalCode":"46239","url":"https://constantcontact.com"},
{"name":"Walter Inc","address":"3 Del Mar Court","city":"Lansing","state":"Michigan","postalCode":"48919","url":"http://cnn.com"},
{"name":"Hammes-Tromp","address":"51 Pond Center","city":"Omaha","state":"Nebraska","postalCode":"68134","url":"https://wikimedia.org"},
{"name":"Stracke-Ondricka","address":"903 Jenifer Center","city":"Ocala","state":"Florida","postalCode":"34479","url":"http://wikispaces.com"},
{"name":"Leuschke, Rutherford and Cummerata","address":"75 Prairie Rose Way","city":"Oakland","state":"California","postalCode":"94627","url":"http://cocolog-nifty.com"},
{"name":"Tromp, Herzog and Hartmann","address":"6 Novick Plaza","city":"Pittsburgh","state":"Pennsylvania","postalCode":"15240","url":"http://barnesandnoble.com"},
{"name":"Lowe, Toy and Boyer","address":"231 Marcy Drive","city":"Baltimore","state":"Maryland","postalCode":"21211","url":"http://shareasale.com"},
{"name":"Ruecker-Becker","address":"33053 Jenna Crossing","city":"Sacramento","state":"California","postalCode":"94245","url":"https://nymag.com"},
{"name":"Lang-Rohan","address":"86437 Twin Pines Trail","city":"San Diego","state":"California","postalCode":"92165","url":"http://wired.com"},
{"name":"Howell and Sons","address":"0650 Golf View Crossing","city":"Washington","state":"District of Columbia","postalCode":"20051","url":"https://toplist.cz"},
{"name":"Kozey and Sons","address":"84094 Armistice Crossing","city":"Roanoke","state":"Virginia","postalCode":"24009","url":"https://jiathis.com"},
{"name":"Rippin-Hettinger","address":"49084 Ruskin Park","city":"San Bernardino","state":"California","postalCode":"92424","url":"https://xinhuanet.com"},
{"name":"Harris-Emmerich","address":"9 5th Plaza","city":"Pittsburgh","state":"Pennsylvania","postalCode":"15250","url":"http://blogtalkradio.com"},
{"name":"Hilll Inc","address":"4 Shopko Street","city":"Crawfordsville","state":"Indiana","postalCode":"47937","url":"http://oracle.com"},
{"name":"Hand, Schowalter and Denesik","address":"55153 School Center","city":"Detroit","state":"Michigan","postalCode":"48295","url":"http://paginegialle.it"},
{"name":"Pagac and Sons","address":"25 Anhalt Street","city":"Odessa","state":"Texas","postalCode":"79769","url":"http://discuz.net"},
{"name":"Schaefer, Klocko and Crooks","address":"51791 Boyd Avenue","city":"New York City","state":"New York","postalCode":"10270","url":"https://apple.com"},
{"name":"Howell Inc","address":"742 Di Loreto Crossing","city":"Fort Lauderdale","state":"Florida","postalCode":"33315","url":"https://slashdot.org"},
{"name":"Collins LLC","address":"852 Clemons Alley","city":"Albuquerque","state":"New Mexico","postalCode":"87115","url":"https://discuz.net"},
{"name":"Kub and Sons","address":"66645 Loeprich Lane","city":"Cleveland","state":"Ohio","postalCode":"44185","url":"https://imgur.com"},
{"name":"Bashirian-Feest","address":"1 Glacier Hill Way","city":"New York City","state":"New York","postalCode":"10099","url":"http://liveinternet.ru"},
{"name":"Ledner Group","address":"451 Dunning Center","city":"New York City","state":"New York","postalCode":"10249","url":"https://indiegogo.com"},
{"name":"Heller-Schaden","address":"949 Norway Maple Pass","city":"Brooklyn","state":"New York","postalCode":"11236","url":"https://geocities.com"},
{"name":"Gusikowski, Gerhold and Swaniawski","address":"15 Colorado Parkway","city":"Cincinnati","state":"Ohio","postalCode":"45999","url":"http://icio.us"},
{"name":"Fritsch-Grimes","address":"39 Anniversary Crossing","city":"Vero Beach","state":"Florida","postalCode":"32969","url":"https://amazon.com"},
{"name":"Kunde, Medhurst and Lowe","address":"8 Hoepker Park","city":"Lexington","state":"Kentucky","postalCode":"40576","url":"http://nsw.gov.au"},
{"name":"Grimes Group","address":"15575 Towne Trail","city":"Peoria","state":"Illinois","postalCode":"61656","url":"http://prweb.com"},
{"name":"Haag, Schuster and Rolfson","address":"53263 Petterle Parkway","city":"Orange","state":"California","postalCode":"92867","url":"http://eepurl.com"},
{"name":"Muller-Torp","address":"819 Florence Place","city":"Stamford","state":"Connecticut","postalCode":"06912","url":"https://discuz.net"},
{"name":"Collins-Bechtelar","address":"6 Stuart Center","city":"Omaha","state":"Nebraska","postalCode":"68179","url":"http://surveymonkey.com"},
{"name":"Connelly, Romaguera and Reilly","address":"121 Lukken Way","city":"Miami","state":"Florida","postalCode":"33111","url":"http://nytimes.com"},
{"name":"Fahey Group","address":"776 Hayes Terrace","city":"Knoxville","state":"Tennessee","postalCode":"37919","url":"http://psu.edu"},
{"name":"Glover-Rowe","address":"1 Tennessee Circle","city":"Baton Rouge","state":"Louisiana","postalCode":"70894","url":"https://nytimes.com"},
{"name":"Fritsch-Smitham","address":"2 Vahlen Pass","city":"Tucson","state":"Arizona","postalCode":"85732","url":"http://arizona.edu"},
{"name":"Zemlak Group","address":"81 Bluejay Circle","city":"Colorado Springs","state":"Colorado","postalCode":"80995","url":"http://home.pl"},
{"name":"Weissnat Group","address":"45734 Upham Way","city":"Cincinnati","state":"Ohio","postalCode":"45223","url":"https://cargocollective.com"},
{"name":"Davis-Pacocha","address":"4 Monument Hill","city":"Fort Lauderdale","state":"Florida","postalCode":"33315","url":"https://hatena.ne.jp"},
{"name":"Frami Group","address":"0 Upham Avenue","city":"Minneapolis","state":"Minnesota","postalCode":"55458","url":"https://nba.com"},
{"name":"Strosin-Waters","address":"8676 Pond Plaza","city":"New York City","state":"New York","postalCode":"10019","url":"https://vkontakte.ru"},
{"name":"Bauch, Marquardt and Mayert","address":"214 Vermont Plaza","city":"Memphis","state":"Tennessee","postalCode":"38181","url":"https://i2i.jp"},
{"name":"Wolff, Halvorson and Corwin","address":"90 Sunfield Place","city":"Denver","state":"Colorado","postalCode":"80299","url":"https://sourceforge.net"},
{"name":"Olson, Jacobs and Lakin","address":"916 Arrowood Pass","city":"Jamaica","state":"New York","postalCode":"11431","url":"https://uol.com.br"},
{"name":"Dibbert, Schowalter and Murazik","address":"841 Johnson Drive","city":"Fort Wayne","state":"Indiana","postalCode":"46825","url":"https://earthlink.net"},
{"name":"Ritchie-O'Hara","address":"9910 6th Terrace","city":"Tucson","state":"Arizona","postalCode":"85737","url":"https://liveinternet.ru"},
{"name":"Schimmel Inc","address":"71468 Autumn Leaf Drive","city":"Salt Lake City","state":"Utah","postalCode":"84170","url":"http://java.com"},
{"name":"Terry-Emard","address":"89 Evergreen Center","city":"Athens","state":"Georgia","postalCode":"30605","url":"http://yellowbook.com"},
{"name":"Schamberger and Sons","address":"911 Marquette Plaza","city":"Gainesville","state":"Florida","postalCode":"32605","url":"http://networksolutions.com"},
{"name":"Mayer-Prosacco","address":"96 Bayside Avenue","city":"Newark","state":"New Jersey","postalCode":"07188","url":"http://wikia.com"},
{"name":"Kutch and Sons","address":"03 Pierstorff Court","city":"Fresno","state":"California","postalCode":"93704","url":"http://who.int"},
{"name":"Stanton, Zieme and Bosco","address":"4 Green Center","city":"Homestead","state":"Florida","postalCode":"33034","url":"http://yale.edu"},
{"name":"Bartoletti, Weber and Haley","address":"5 Kenwood Hill","city":"Lynchburg","state":"Virginia","postalCode":"24515","url":"http://merriam-webster.com"},
{"name":"Wintheiser LLC","address":"484 Fuller Hill","city":"Sioux Falls","state":"South Dakota","postalCode":"57105","url":"https://canalblog.com"},
{"name":"Collier-Stroman","address":"0 Lakewood Gardens Junction","city":"Canton","state":"Ohio","postalCode":"44720","url":"https://fema.gov"},
{"name":"Bernier-Hammes","address":"519 Coolidge Road","city":"Los Angeles","state":"California","postalCode":"90050","url":"http://marriott.com"},
{"name":"Russel-Zieme","address":"3 Ludington Road","city":"Jamaica","state":"New York","postalCode":"11431","url":"https://china.com.cn"},
{"name":"Huel Group","address":"85 Sommers Junction","city":"Memphis","state":"Tennessee","postalCode":"38143","url":"https://uiuc.edu"},
{"name":"Hilll-Powlowski","address":"107 David Parkway","city":"Boulder","state":"Colorado","postalCode":"80310","url":"https://un.org"},
{"name":"Rohan and Sons","address":"8 Fairfield Road","city":"Richmond","state":"Virginia","postalCode":"23289","url":"http://nps.gov"},
{"name":"Quigley, Rolfson and Maggio","address":"032 Killdeer Hill","city":"Kansas City","state":"Missouri","postalCode":"64160","url":"https://sbwire.com"},
{"name":"O'Conner and Sons","address":"5 Eagan Lane","city":"Portsmouth","state":"Virginia","postalCode":"23705","url":"https://google.de"},
{"name":"Towne and Sons","address":"5472 Debs Plaza","city":"Naperville","state":"Illinois","postalCode":"60567","url":"https://lulu.com"},
{"name":"Jaskolski, Pacocha and Feeney","address":"0386 Hooker Park","city":"College Station","state":"Texas","postalCode":"77844","url":"http://woothemes.com"},
{"name":"Skiles, Bradtke and Kovacek","address":"040 Pierstorff Crossing","city":"Grand Rapids","state":"Michigan","postalCode":"49560","url":"https://ameblo.jp"},
{"name":"Hilll-Lockman","address":"9969 Amoth Road","city":"Naples","state":"Florida","postalCode":"34108","url":"https://slate.com"},
{"name":"Pagac-Medhurst","address":"438 Fair Oaks Drive","city":"Louisville","state":"Kentucky","postalCode":"40298","url":"http://fastcompany.com"},
{"name":"Volkman and Sons","address":"115 Derek Circle","city":"Toledo","state":"Ohio","postalCode":"43656","url":"http://hostgator.com"},
{"name":"Kunze-Jacobs","address":"96553 Pierstorff Alley","city":"Atlanta","state":"Georgia","postalCode":"31165","url":"http://feedburner.com"},
{"name":"Jacobson-Olson","address":"5 West Junction","city":"San Antonio","state":"Texas","postalCode":"78250","url":"http://youtube.com"},
{"name":"Armstrong Inc","address":"7159 Sloan Parkway","city":"Louisville","state":"Kentucky","postalCode":"40233","url":"http://ycombinator.com"},
{"name":"Daugherty and Sons","address":"157 Village Junction","city":"Dallas","state":"Texas","postalCode":"75372","url":"https://msn.com"},
{"name":"Connelly-Volkman","address":"27977 Jenifer Parkway","city":"Albany","state":"New York","postalCode":"12255","url":"https://wikispaces.com"},
{"name":"Cassin-Ankunding","address":"561 Waxwing Alley","city":"San Antonio","state":"Texas","postalCode":"78278","url":"https://bandcamp.com"},
{"name":"Bartoletti-Kunze","address":"874 Coolidge Street","city":"Olympia","state":"Washington","postalCode":"98516","url":"http://hud.gov"},
{"name":"Bashirian Inc","address":"47 Oxford Avenue","city":"Cincinnati","state":"Ohio","postalCode":"45218","url":"https://google.de"},
{"name":"Sporer-Skiles","address":"861 John Wall Court","city":"Sioux City","state":"Iowa","postalCode":"51105","url":"https://nytimes.com"},
{"name":"Smith-Kunze","address":"066 Scofield Drive","city":"Colorado Springs","state":"Colorado","postalCode":"80995","url":"http://bbc.co.uk"},
{"name":"Daugherty-Goldner","address":"35 Saint Paul Parkway","city":"Mount Vernon","state":"New York","postalCode":"10557","url":"https://biblegateway.com"},
{"name":"Towne LLC","address":"88 Union Place","city":"Fresno","state":"California","postalCode":"93740","url":"https://mediafire.com"},
{"name":"Cronin, Trantow and Grady","address":"306 Waubesa Junction","city":"Tucson","state":"Arizona","postalCode":"85754","url":"http://sourceforge.net"},
{"name":"Batz LLC","address":"34 Raven Terrace","city":"Houston","state":"Texas","postalCode":"77095","url":"http://qq.com"},
{"name":"Bashirian Group","address":"199 Quincy Plaza","city":"Bethlehem","state":"Pennsylvania","postalCode":"18018","url":"http://wp.com"},
{"name":"Wisoky-Prosacco","address":"390 Green Parkway","city":"Indianapolis","state":"Indiana","postalCode":"46254","url":"http://ezinearticles.com"},
{"name":"Kohler, Zemlak and Douglas","address":"196 Dottie Alley","city":"Maple Plain","state":"Minnesota","postalCode":"55572","url":"https://deviantart.com"},
{"name":"Emard, Connelly and Schmidt","address":"0196 Delladonna Hill","city":"New Haven","state":"Connecticut","postalCode":"06510","url":"http://unblog.fr"},
{"name":"Johnston-O'Reilly","address":"755 Pearson Trail","city":"Columbia","state":"South Carolina","postalCode":"29220","url":"https://google.pl"},
{"name":"Dooley-Fahey","address":"1 Holmberg Drive","city":"Buffalo","state":"New York","postalCode":"14215","url":"https://exblog.jp"},
{"name":"Watsica, Jones and Block","address":"4 John Wall Parkway","city":"Richmond","state":"Virginia","postalCode":"23228","url":"http://hostgator.com"},
{"name":"O'Kon, Schowalter and Langworth","address":"30 Schmedeman Point","city":"Carson City","state":"Nevada","postalCode":"89714","url":"https://businessweek.com"},
{"name":"Jast-Stoltenberg","address":"00 Del Sol Street","city":"Mobile","state":"Alabama","postalCode":"36641","url":"http://odnoklassniki.ru"},
{"name":"Berge-Hintz","address":"5 Manley Pass","city":"Falls Church","state":"Virginia","postalCode":"22047","url":"http://boston.com"},
{"name":"Boyer Group","address":"842 Fairfield Trail","city":"Denton","state":"Texas","postalCode":"76210","url":"http://pagesperso-orange.fr"},
{"name":"Gislason-Funk","address":"3664 Eagle Crest Trail","city":"Durham","state":"North Carolina","postalCode":"27710","url":"https://bizjournals.com"},
{"name":"Dickinson-Hauck","address":"811 Macpherson Point","city":"Tyler","state":"Texas","postalCode":"75710","url":"http://msu.edu"},
{"name":"Mueller LLC","address":"2187 Calypso Road","city":"Irving","state":"Texas","postalCode":"75037","url":"http://blogger.com"},
{"name":"Becker-Wilkinson","address":"40 Sherman Plaza","city":"Brooklyn","state":"New York","postalCode":"11247","url":"http://ftc.gov"},
{"name":"DuBuque and Sons","address":"2 Hudson Street","city":"Irvine","state":"California","postalCode":"92717","url":"https://canalblog.com"},
{"name":"Kihn-Botsford","address":"681 Service Point","city":"El Paso","state":"Texas","postalCode":"79984","url":"http://storify.com"},
{"name":"Morissette, Howell and Rippin","address":"1225 Hayes Circle","city":"Louisville","state":"Kentucky","postalCode":"40256","url":"https://wikispaces.com"},
{"name":"Nicolas, Cruickshank and Hickle","address":"5063 Golf Course Parkway","city":"Lubbock","state":"Texas","postalCode":"79491","url":"http://facebook.com"},
{"name":"Kassulke Group","address":"4581 Manitowish Pass","city":"Amarillo","state":"Texas","postalCode":"79105","url":"https://marriott.com"},
{"name":"Daugherty Group","address":"34 Jana Plaza","city":"Phoenix","state":"Arizona","postalCode":"85030","url":"http://ameblo.jp"},
{"name":"Dooley Group","address":"64545 Leroy Trail","city":"Los Angeles","state":"California","postalCode":"90060","url":"https://auda.org.au"},
{"name":"Armstrong and Sons","address":"615 Surrey Place","city":"Houston","state":"Texas","postalCode":"77288","url":"https://pen.io"},
{"name":"Kling Inc","address":"0686 Superior Hill","city":"Escondido","state":"California","postalCode":"92030","url":"http://walmart.com"},
{"name":"Nicolas LLC","address":"3 Fairview Junction","city":"Huntington","state":"West Virginia","postalCode":"25705","url":"http://geocities.com"},
{"name":"Streich Inc","address":"46 Armistice Park","city":"Indianapolis","state":"Indiana","postalCode":"46207","url":"http://com.com"},
{"name":"MacGyver and Sons","address":"296 Union Plaza","city":"Danbury","state":"Connecticut","postalCode":"06816","url":"http://cpanel.net"},
{"name":"Heidenreich and Sons","address":"7 Reinke Park","city":"Saint Petersburg","state":"Florida","postalCode":"33737","url":"http://washington.edu"},
{"name":"Stehr, Hudson and Blick","address":"5 Erie Road","city":"San Antonio","state":"Texas","postalCode":"78278","url":"https://blogspot.com"},
{"name":"Johns Inc","address":"53248 Farwell Terrace","city":"Detroit","state":"Michigan","postalCode":"48232","url":"http://t-online.de"},
{"name":"Dietrich Inc","address":"0258 Prairie Rose Place","city":"Chesapeake","state":"Virginia","postalCode":"23324","url":"https://flickr.com"},
{"name":"Lynch, Towne and Lang","address":"29 Alpine Terrace","city":"Arlington","state":"Texas","postalCode":"76016","url":"https://twitter.com"},
{"name":"Beatty, Hammes and Kulas","address":"34604 Graedel Junction","city":"Waco","state":"Texas","postalCode":"76796","url":"https://list-manage.com"},
{"name":"Schimmel Group","address":"3 Rieder Center","city":"Lubbock","state":"Texas","postalCode":"79452","url":"http://icq.com"},
{"name":"Hauck-Haag","address":"9268 Corben Trail","city":"Austin","state":"Texas","postalCode":"78737","url":"http://ibm.com"},
{"name":"Leffler and Sons","address":"86473 Alpine Street","city":"Galveston","state":"Texas","postalCode":"77554","url":"https://wsj.com"},
{"name":"Greenholt Group","address":"3405 Kingsford Alley","city":"El Paso","state":"Texas","postalCode":"88569","url":"http://usatoday.com"},
{"name":"Jakubowski-Mann","address":"526 Village Lane","city":"Seattle","state":"Washington","postalCode":"98104","url":"https://redcross.org"},
{"name":"Rau-Kautzer","address":"1592 Mifflin Drive","city":"Miami","state":"Florida","postalCode":"33111","url":"https://army.mil"},
{"name":"Koelpin Group","address":"6 Clarendon Center","city":"Littleton","state":"Colorado","postalCode":"80161","url":"https://npr.org"},
{"name":"Boehm-Von","address":"9420 Melby Avenue","city":"Lansing","state":"Michigan","postalCode":"48956","url":"https://stumbleupon.com"},
{"name":"Kassulke-Kunde","address":"07290 Dorton Circle","city":"Birmingham","state":"Alabama","postalCode":"35285","url":"https://yandex.ru"},
{"name":"Baumbach-Murphy","address":"5 Twin Pines Terrace","city":"Newark","state":"Delaware","postalCode":"19714","url":"http://patch.com"},
{"name":"Corkery-Hermann","address":"57 Bay Road","city":"Baltimore","state":"Maryland","postalCode":"21282","url":"http://rambler.ru"},
{"name":"Conn LLC","address":"002 Evergreen Court","city":"Riverside","state":"California","postalCode":"92513","url":"http://joomla.org"},
{"name":"Considine, Breitenberg and Hammes","address":"2359 Vahlen Crossing","city":"El Paso","state":"Texas","postalCode":"79916","url":"http://dell.com"},
{"name":"Walter LLC","address":"8720 Hudson Pass","city":"Lakeland","state":"Florida","postalCode":"33811","url":"https://deliciousdays.com"},
{"name":"Reilly, Simonis and Erdman","address":"03537 Duke Center","city":"Tacoma","state":"Washington","postalCode":"98464","url":"https://paypal.com"},
{"name":"Williamson LLC","address":"51 Lakewood Park","city":"Fort Lauderdale","state":"Florida","postalCode":"33310","url":"http://google.fr"},
{"name":"Schinner-Walker","address":"906 Lunder Crossing","city":"Tulsa","state":"Oklahoma","postalCode":"74170","url":"http://posterous.com"},
{"name":"Pfeffer, Schmeler and Cronin","address":"5239 East Lane","city":"Charleston","state":"West Virginia","postalCode":"25313","url":"https://opensource.org"},
{"name":"Hessel Group","address":"4378 Crescent Oaks Terrace","city":"Fort Wayne","state":"Indiana","postalCode":"46814","url":"http://wp.com"},
{"name":"Schamberger-Johnson","address":"8 Golf Course Trail","city":"Garden Grove","state":"California","postalCode":"92844","url":"https://phpbb.com"},
{"name":"Schaden, Beer and McLaughlin","address":"188 Rieder Park","city":"Waco","state":"Texas","postalCode":"76711","url":"https://oracle.com"},
{"name":"Lockman-Abbott","address":"52021 Towne Avenue","city":"Akron","state":"Ohio","postalCode":"44305","url":"https://accuweather.com"},
{"name":"Rogahn LLC","address":"411 Lotheville Park","city":"Lees Summit","state":"Missouri","postalCode":"64082","url":"http://fastcompany.com"},
{"name":"Haag, Mertz and Koepp","address":"0887 Walton Parkway","city":"Las Vegas","state":"Nevada","postalCode":"89166","url":"http://usa.gov"},
{"name":"Barrows-Shanahan","address":"85 6th Road","city":"Crawfordsville","state":"Indiana","postalCode":"47937","url":"https://cloudflare.com"},
{"name":"Stoltenberg, Kling and Lakin","address":"7 Mariners Cove Street","city":"Decatur","state":"Georgia","postalCode":"30089","url":"https://facebook.com"},
{"name":"Champlin Group","address":"81531 Kim Street","city":"New York City","state":"New York","postalCode":"10099","url":"http://gizmodo.com"},
{"name":"Hoppe-Mante","address":"6986 Evergreen Parkway","city":"Fort Worth","state":"Texas","postalCode":"76121","url":"https://hibu.com"},
{"name":"Emard, Gusikowski and Cummings","address":"4966 Dahle Alley","city":"Champaign","state":"Illinois","postalCode":"61825","url":"https://123-reg.co.uk"},
{"name":"Haag and Sons","address":"92 Dahle Street","city":"Spokane","state":"Washington","postalCode":"99260","url":"https://ezinearticles.com"},
{"name":"Haley Group","address":"0917 Schiller Way","city":"Shreveport","state":"Louisiana","postalCode":"71166","url":"http://gizmodo.com"},
{"name":"Weimann-Kirlin","address":"035 Oriole Center","city":"Las Vegas","state":"Nevada","postalCode":"89150","url":"http://illinois.edu"},
{"name":"Gusikowski, Hermann and Bernier","address":"92 Messerschmidt Parkway","city":"Washington","state":"District of Columbia","postalCode":"20470","url":"https://tinypic.com"},
{"name":"Steuber and Sons","address":"68 Hayes Way","city":"Minneapolis","state":"Minnesota","postalCode":"55417","url":"http://cam.ac.uk"},
{"name":"Larkin Inc","address":"102 Columbus Plaza","city":"Greensboro","state":"North Carolina","postalCode":"27455","url":"https://tripod.com"},
{"name":"Cummings-Waelchi","address":"90658 Truax Trail","city":"Milwaukee","state":"Wisconsin","postalCode":"53220","url":"http://jimdo.com"},
{"name":"Koch, Wiegand and Steuber","address":"417 Buhler Terrace","city":"North Las Vegas","state":"Nevada","postalCode":"89087","url":"http://tuttocitta.it"},
{"name":"Moen, Reilly and Kutch","address":"1214 Dennis Street","city":"Gainesville","state":"Florida","postalCode":"32605","url":"https://forbes.com"},
{"name":"Grimes LLC","address":"54454 Green Crossing","city":"Tacoma","state":"Washington","postalCode":"98424","url":"http://uiuc.edu"},
{"name":"Schuppe Inc","address":"3 Westport Lane","city":"Louisville","state":"Kentucky","postalCode":"40205","url":"https://ycombinator.com"},
{"name":"Daniel and Sons","address":"0 Luster Hill","city":"Columbia","state":"Missouri","postalCode":"65218","url":"https://toplist.cz"},
{"name":"Cartwright-Cormier","address":"0 Kropf Hill","city":"Springfield","state":"Illinois","postalCode":"62764","url":"https://huffingtonpost.com"},
{"name":"Braun-Ferry","address":"914 North Hill","city":"Macon","state":"Georgia","postalCode":"31210","url":"http://printfriendly.com"},
{"name":"Abernathy, Strosin and Zemlak","address":"97438 Miller Terrace","city":"Topeka","state":"Kansas","postalCode":"66622","url":"http://chron.com"},
{"name":"Nolan-Upton","address":"71040 Prentice Hill","city":"Jacksonville","state":"Florida","postalCode":"32244","url":"http://sourceforge.net"},
{"name":"Kirlin, Tromp and McKenzie","address":"6 Iowa Plaza","city":"Los Angeles","state":"California","postalCode":"90055","url":"https://yale.edu"},
{"name":"Rutherford-Gutkowski","address":"045 Huxley Avenue","city":"Orlando","state":"Florida","postalCode":"32868","url":"https://slideshare.net"},
{"name":"Pfeffer-Koss","address":"2 Oriole Circle","city":"Hartford","state":"Connecticut","postalCode":"06120","url":"https://ebay.co.uk"},
{"name":"Wunsch LLC","address":"8 Sauthoff Hill","city":"Meridian","state":"Mississippi","postalCode":"39305","url":"https://ihg.com"},
{"name":"Kohler, Feest and Huels","address":"60 Donald Crossing","city":"Hyattsville","state":"Maryland","postalCode":"20784","url":"http://jimdo.com"},
{"name":"Aufderhar Inc","address":"82 Bowman Terrace","city":"Fort Worth","state":"Texas","postalCode":"76121","url":"https://sciencedaily.com"},
{"name":"Rodriguez Group","address":"73118 Ruskin Plaza","city":"Albany","state":"New York","postalCode":"12232","url":"https://engadget.com"},
{"name":"Hudson-Pouros","address":"596 Sherman Way","city":"Houston","state":"Texas","postalCode":"77090","url":"https://globo.com"},
{"name":"Berge Group","address":"459 Gerald Center","city":"Erie","state":"Pennsylvania","postalCode":"16534","url":"http://blinklist.com"},
{"name":"Bergstrom-Thiel","address":"019 Clove Parkway","city":"Woburn","state":"Massachusetts","postalCode":"01813","url":"https://instagram.com"},
{"name":"Ferry and Sons","address":"5 Moland Lane","city":"Louisville","state":"Kentucky","postalCode":"40210","url":"http://pcworld.com"},
{"name":"Cassin-Medhurst","address":"1 Hazelcrest Park","city":"Dayton","state":"Ohio","postalCode":"45490","url":"https://networkadvertising.org"},
{"name":"Borer-Zieme","address":"98626 Lunder Road","city":"Alhambra","state":"California","postalCode":"91841","url":"https://weibo.com"},
{"name":"Fisher Group","address":"403 Fallview Way","city":"Kissimmee","state":"Florida","postalCode":"34745","url":"https://t-online.de"},
{"name":"Bogan, Wunsch and Hoppe","address":"9600 Sherman Hill","city":"Washington","state":"District of Columbia","postalCode":"20599","url":"http://scribd.com"},
{"name":"Simonis, Ernser and Kling","address":"9351 Nova Parkway","city":"Tulsa","state":"Oklahoma","postalCode":"74141","url":"http://goo.ne.jp"},
{"name":"Auer-Schamberger","address":"25649 Granby Parkway","city":"Tulsa","state":"Oklahoma","postalCode":"74170","url":"https://examiner.com"},
{"name":"Abbott-Huel","address":"2359 Ludington Parkway","city":"Denver","state":"Colorado","postalCode":"80262","url":"https://goo.ne.jp"},
{"name":"Feeney, Rutherford and Crona","address":"80 Dryden Lane","city":"Troy","state":"Michigan","postalCode":"48098","url":"https://baidu.com"},
{"name":"Langworth, Keeling and Dibbert","address":"21 8th Road","city":"Saint Louis","state":"Missouri","postalCode":"63158","url":"https://slideshare.net"},
{"name":"Lubowitz, Emard and Quigley","address":"2 Cordelia Circle","city":"Evanston","state":"Illinois","postalCode":"60208","url":"https://illinois.edu"},
{"name":"Corwin-Batz","address":"315 Di Loreto Point","city":"Brooklyn","state":"New York","postalCode":"11254","url":"http://liveinternet.ru"},
{"name":"Schuppe-Parker","address":"7099 Susan Way","city":"Houston","state":"Texas","postalCode":"77201","url":"https://instagram.com"},
{"name":"Klocko, Hammes and Reichel","address":"27400 Rowland Lane","city":"Boston","state":"Massachusetts","postalCode":"02203","url":"https://arizona.edu"},
{"name":"Rohan-Johns","address":"933 Goodland Parkway","city":"Baltimore","state":"Maryland","postalCode":"21275","url":"https://nbcnews.com"},
{"name":"Kemmer Inc","address":"78436 Eastwood Drive","city":"El Paso","state":"Texas","postalCode":"79968","url":"https://arstechnica.com"},
{"name":"Streich LLC","address":"036 Ludington Plaza","city":"Kansas City","state":"Missouri","postalCode":"64199","url":"http://marketwatch.com"},
{"name":"Schoen-Ryan","address":"9 Summit Way","city":"New Bedford","state":"Massachusetts","postalCode":"02745","url":"http://si.edu"},
{"name":"Towne, Ullrich and Hartmann","address":"298 Oak Valley Place","city":"Fargo","state":"North Dakota","postalCode":"58122","url":"http://blogspot.com"},
{"name":"Dicki Group","address":"5801 Veith Terrace","city":"Dallas","state":"Texas","postalCode":"75277","url":"https://wikispaces.com"},
{"name":"Zboncak, Rippin and Hirthe","address":"7 Fairfield Place","city":"Des Moines","state":"Iowa","postalCode":"50393","url":"http://yale.edu"},
{"name":"Crist, Padberg and Rolfson","address":"758 Red Cloud Point","city":"Richmond","state":"Virginia","postalCode":"23225","url":"http://hao123.com"},
{"name":"Rowe, Anderson and Hagenes","address":"6 Charing Cross Lane","city":"Columbus","state":"Ohio","postalCode":"43204","url":"http://zdnet.com"},
{"name":"Mayer and Sons","address":"52 6th Pass","city":"Athens","state":"Georgia","postalCode":"30610","url":"https://people.com.cn"},
{"name":"O'Kon Group","address":"7561 Logan Crossing","city":"Cleveland","state":"Ohio","postalCode":"44118","url":"http://prweb.com"},
{"name":"Hackett LLC","address":"3 Iowa Circle","city":"Phoenix","state":"Arizona","postalCode":"85077","url":"https://whitehouse.gov"},
{"name":"Hettinger, Abernathy and Padberg","address":"153 Annamark Avenue","city":"Pittsburgh","state":"Pennsylvania","postalCode":"15240","url":"http://360.cn"},
{"name":"Hamill, Mante and Sawayn","address":"39562 Drewry Terrace","city":"Pasadena","state":"California","postalCode":"91109","url":"https://opera.com"},
{"name":"Braun-Watsica","address":"7 Barnett Alley","city":"Bronx","state":"New York","postalCode":"10464","url":"http://indiatimes.com"},
{"name":"Hintz-Lindgren","address":"4066 Mallard Lane","city":"Sacramento","state":"California","postalCode":"95852","url":"http://theglobeandmail.com"},
{"name":"Dooley, Walsh and Harvey","address":"2401 Old Shore Way","city":"Albuquerque","state":"New Mexico","postalCode":"87115","url":"https://mediafire.com"},
{"name":"Cole LLC","address":"68865 Luster Street","city":"Chula Vista","state":"California","postalCode":"91913","url":"http://usnews.com"},
{"name":"Jast, Dickinson and Jakubowski","address":"13061 4th Terrace","city":"Evansville","state":"Indiana","postalCode":"47705","url":"https://bizjournals.com"},
{"name":"Koss, Kassulke and Beahan","address":"9852 New Castle Drive","city":"West Palm Beach","state":"Florida","postalCode":"33416","url":"https://geocities.com"},
{"name":"Schaden Group","address":"940 Pearson Junction","city":"Tampa","state":"Florida","postalCode":"33633","url":"http://usa.gov"},
{"name":"Howell, Beahan and Block","address":"55514 Daystar Court","city":"Santa Fe","state":"New Mexico","postalCode":"87592","url":"https://un.org"},
{"name":"Gorczany, Botsford and Osinski","address":"96 Moland Park","city":"Louisville","state":"Kentucky","postalCode":"40293","url":"http://paypal.com"},
{"name":"Rohan, Boyer and Torphy","address":"3592 Homewood Crossing","city":"Phoenix","state":"Arizona","postalCode":"85035","url":"https://epa.gov"},
{"name":"Harber Inc","address":"5 Butternut Trail","city":"Dallas","state":"Texas","postalCode":"75205","url":"https://ucsd.edu"},
{"name":"Herzog, Boyle and O'Kon","address":"7219 Lakewood Parkway","city":"Boca Raton","state":"Florida","postalCode":"33432","url":"http://rambler.ru"},
{"name":"Ziemann-Bashirian","address":"19434 Nevada Parkway","city":"Aurora","state":"Illinois","postalCode":"60505","url":"http://army.mil"},
{"name":"Walsh Inc","address":"33 Canary Junction","city":"Birmingham","state":"Alabama","postalCode":"35279","url":"https://uiuc.edu"},
{"name":"Terry-Stark","address":"91 Oriole Alley","city":"Tulsa","state":"Oklahoma","postalCode":"74126","url":"https://intel.com"},
{"name":"Steuber-Bahringer","address":"993 Leroy Alley","city":"Dallas","state":"Texas","postalCode":"75216","url":"https://sun.com"},
{"name":"Hickle, Tremblay and Nolan","address":"34772 Everett Pass","city":"Birmingham","state":"Alabama","postalCode":"35225","url":"https://yolasite.com"},
{"name":"Kemmer Inc","address":"609 Hudson Alley","city":"Largo","state":"Florida","postalCode":"34643","url":"http://kickstarter.com"},
{"name":"Schneider-Schroeder","address":"51109 Bashford Crossing","city":"Appleton","state":"Wisconsin","postalCode":"54915","url":"http://nydailynews.com"},
{"name":"Quitzon, Beer and Ledner","address":"30688 Pennsylvania Center","city":"Winston Salem","state":"North Carolina","postalCode":"27110","url":"https://netscape.com"},
{"name":"Bahringer Group","address":"18113 Portage Hill","city":"Reno","state":"Nevada","postalCode":"89505","url":"http://tumblr.com"},
{"name":"Hilll-Ledner","address":"2499 La Follette Plaza","city":"Jamaica","state":"New York","postalCode":"11470","url":"https://mozilla.com"},
{"name":"Crona LLC","address":"57 Oak Valley Terrace","city":"Stamford","state":"Connecticut","postalCode":"06912","url":"http://t-online.de"},
{"name":"McGlynn, Hauck and Ernser","address":"313 Vidon Pass","city":"Minneapolis","state":"Minnesota","postalCode":"55417","url":"https://webmd.com"},
{"name":"Klocko-Reilly","address":"90180 Lyons Lane","city":"Scranton","state":"Pennsylvania","postalCode":"18514","url":"http://psu.edu"},
{"name":"Graham Group","address":"653 Mallard Point","city":"Minneapolis","state":"Minnesota","postalCode":"55428","url":"https://vk.com"},
{"name":"Osinski-Shields","address":"8319 Sundown Hill","city":"Washington","state":"District of Columbia","postalCode":"56944","url":"http://delicious.com"},
{"name":"Schuster, Cummings and Kuhn","address":"173 Lotheville Place","city":"Washington","state":"District of Columbia","postalCode":"20530","url":"http://stumbleupon.com"},
{"name":"Gutmann, Anderson and D'Amore","address":"785 Kensington Court","city":"Washington","state":"District of Columbia","postalCode":"20062","url":"http://patch.com"},
{"name":"Nikolaus-Schoen","address":"780 Saint Paul Avenue","city":"Mobile","state":"Alabama","postalCode":"36622","url":"https://plala.or.jp"},
{"name":"Morissette Group","address":"65969 Vera Circle","city":"Nashville","state":"Tennessee","postalCode":"37235","url":"http://yellowbook.com"},
{"name":"McDermott-Bernier","address":"182 Merchant Terrace","city":"Fresno","state":"California","postalCode":"93794","url":"http://privacy.gov.au"},
{"name":"Pouros-Mitchell","address":"1 Esker Circle","city":"Cleveland","state":"Ohio","postalCode":"44197","url":"http://rediff.com"},
{"name":"Rogahn, Satterfield and Buckridge","address":"78880 Judy Hill","city":"Albany","state":"Georgia","postalCode":"31704","url":"https://cyberchimps.com"},
{"name":"Rodriguez and Sons","address":"03 Knutson Plaza","city":"Saint Louis","state":"Missouri","postalCode":"63196","url":"https://ed.gov"},
{"name":"Corwin Inc","address":"3671 Center Drive","city":"Toledo","state":"Ohio","postalCode":"43615","url":"http://artisteer.com"},
{"name":"Nolan, Reinger and Weimann","address":"3 Gale Avenue","city":"Fairfield","state":"Connecticut","postalCode":"06825","url":"https://seesaa.net"},
{"name":"Sporer, Tillman and Bernhard","address":"5053 Clemons Center","city":"Wichita","state":"Kansas","postalCode":"67220","url":"http://webs.com"},
{"name":"Kihn-Armstrong","address":"70 Main Pass","city":"Cleveland","state":"Ohio","postalCode":"44197","url":"https://mit.edu"},
{"name":"Haley-McGlynn","address":"34439 Farwell Way","city":"Huntington","state":"West Virginia","postalCode":"25726","url":"http://github.com"},
{"name":"Dickinson, Feeney and Bernhard","address":"20 Barnett Crossing","city":"Newark","state":"New Jersey","postalCode":"07112","url":"https://ning.com"},
{"name":"Kris-Koss","address":"144 Jenifer Avenue","city":"Austin","state":"Texas","postalCode":"78789","url":"https://technorati.com"},
{"name":"Hills, Kulas and Mitchell","address":"525 Independence Trail","city":"Spring","state":"Texas","postalCode":"77386","url":"http://omniture.com"},
{"name":"Dooley-Leuschke","address":"58 Scofield Plaza","city":"Fort Worth","state":"Texas","postalCode":"76198","url":"https://fotki.com"},
{"name":"Kunde and Sons","address":"5315 Canary Center","city":"Atlanta","state":"Georgia","postalCode":"30380","url":"https://mysql.com"},
{"name":"Hilpert-Murray","address":"4 Elka Avenue","city":"Omaha","state":"Nebraska","postalCode":"68144","url":"http://csmonitor.com"},
{"name":"Willms, Oberbrunner and Romaguera","address":"36 Sommers Place","city":"Tucson","state":"Arizona","postalCode":"85748","url":"http://cbsnews.com"},
{"name":"Anderson-Nader","address":"14191 Utah Terrace","city":"Pittsburgh","state":"Pennsylvania","postalCode":"15235","url":"https://skyrock.com"},
{"name":"Hyatt-Schamberger","address":"1024 Dixon Place","city":"Pittsburgh","state":"Pennsylvania","postalCode":"15225","url":"https://imgur.com"},
{"name":"Altenwerth-Reichel","address":"191 Sunfield Street","city":"Columbia","state":"South Carolina","postalCode":"29203","url":"http://narod.ru"},
{"name":"Kutch, Quigley and Corwin","address":"62 Scofield Street","city":"Saint Louis","state":"Missouri","postalCode":"63131","url":"https://blogger.com"},
{"name":"Reichel-Schroeder","address":"1 Dennis Pass","city":"Portland","state":"Oregon","postalCode":"97255","url":"https://ebay.co.uk"},
{"name":"Tremblay, Satterfield and Sporer","address":"189 Thierer Crossing","city":"Elizabeth","state":"New Jersey","postalCode":"07208","url":"http://princeton.edu"},
{"name":"Klocko LLC","address":"0786 Eastlawn Drive","city":"Athens","state":"Georgia","postalCode":"30610","url":"http://mozilla.org"},
{"name":"Jacobson, Connelly and Gottlieb","address":"5 Ruskin Plaza","city":"Baltimore","state":"Maryland","postalCode":"21282","url":"http://usnews.com"},
{"name":"Boehm Group","address":"9 Kim Lane","city":"Tulsa","state":"Oklahoma","postalCode":"74149","url":"https://github.io"},
{"name":"Wilderman, Harris and Hegmann","address":"62863 Elgar Place","city":"Atlanta","state":"Georgia","postalCode":"30343","url":"http://earthlink.net"},
{"name":"Walsh Inc","address":"6 Hermina Hill","city":"Hartford","state":"Connecticut","postalCode":"06105","url":"https://flavors.me"},
{"name":"Bruen-Dickinson","address":"29124 Onsgard Road","city":"New York City","state":"New York","postalCode":"10170","url":"https://webs.com"},
{"name":"Welch-Hane","address":"59628 Kipling Terrace","city":"Austin","state":"Texas","postalCode":"78764","url":"https://dell.com"},
{"name":"Casper Inc","address":"5943 Holmberg Avenue","city":"Des Moines","state":"Iowa","postalCode":"50320","url":"http://w3.org"},
{"name":"Hills Inc","address":"572 Utah Plaza","city":"Trenton","state":"New Jersey","postalCode":"08695","url":"http://wiley.com"},
{"name":"Hauck, Heathcote and Kozey","address":"90184 Northwestern Avenue","city":"Hayward","state":"California","postalCode":"94544","url":"https://cargocollective.com"},
{"name":"Shields Group","address":"142 Fairfield Center","city":"Greensboro","state":"North Carolina","postalCode":"27455","url":"https://livejournal.com"},
{"name":"Johnson Inc","address":"3533 Novick Junction","city":"Lexington","state":"Kentucky","postalCode":"40505","url":"https://jalbum.net"},
{"name":"Dare-Brown","address":"8 Holmberg Center","city":"Fort Smith","state":"Arkansas","postalCode":"72916","url":"https://theglobeandmail.com"},
{"name":"Boehm-Sauer","address":"801 Chinook Drive","city":"New York City","state":"New York","postalCode":"10090","url":"https://dedecms.com"},
{"name":"Marquardt, Weber and Brakus","address":"7 Thackeray Hill","city":"Denver","state":"Colorado","postalCode":"80209","url":"http://japanpost.jp"},
{"name":"Huels-Wiegand","address":"346 Riverside Terrace","city":"Los Angeles","state":"California","postalCode":"90025","url":"http://wordpress.com"},
{"name":"Brekke and Sons","address":"60 Summer Ridge Park","city":"Texarkana","state":"Texas","postalCode":"75507","url":"http://si.edu"},
{"name":"Schoen-Raynor","address":"4593 Shasta Hill","city":"Charleston","state":"South Carolina","postalCode":"29403","url":"https://tinyurl.com"},
{"name":"Sawayn, Beer and Ratke","address":"9339 Cambridge Plaza","city":"Newark","state":"New Jersey","postalCode":"07195","url":"https://123-reg.co.uk"},
{"name":"Schamberger LLC","address":"32115 Beilfuss Lane","city":"Wichita Falls","state":"Texas","postalCode":"76305","url":"https://nyu.edu"},
{"name":"Altenwerth, Bechtelar and Bernier","address":"70972 Elka Way","city":"Mount Vernon","state":"New York","postalCode":"10557","url":"http://mozilla.org"},
{"name":"Hilpert Group","address":"5 Fisk Circle","city":"San Diego","state":"California","postalCode":"92165","url":"http://livejournal.com"},
{"name":"Wiegand-Dibbert","address":"65 Park Meadow Plaza","city":"Tampa","state":"Florida","postalCode":"33633","url":"https://go.com"},
{"name":"Zboncak Inc","address":"452 Calypso Avenue","city":"Fayetteville","state":"North Carolina","postalCode":"28314","url":"https://fc2.com"},
{"name":"Kassulke Group","address":"00 Vahlen Road","city":"Scranton","state":"Pennsylvania","postalCode":"18505","url":"http://sciencedirect.com"},
{"name":"Walter LLC","address":"960 1st Trail","city":"Greensboro","state":"North Carolina","postalCode":"27499","url":"https://uiuc.edu"},
{"name":"Lebsack, Schmidt and Kuhn","address":"76397 Sachtjen Lane","city":"Falls Church","state":"Virginia","postalCode":"22047","url":"http://nhs.uk"},
{"name":"Hammes, Jacobson and Stiedemann","address":"683 Monument Hill","city":"Grand Rapids","state":"Michigan","postalCode":"49505","url":"http://guardian.co.uk"},
{"name":"Crist-Eichmann","address":"83 Vahlen Alley","city":"Lynchburg","state":"Virginia","postalCode":"24515","url":"http://blog.com"},
{"name":"Wehner, Mertz and Feeney","address":"876 Kensington Street","city":"Honolulu","state":"Hawaii","postalCode":"96810","url":"https://domainmarket.com"},
{"name":"Schaefer LLC","address":"38151 Schmedeman Plaza","city":"Memphis","state":"Tennessee","postalCode":"38197","url":"https://de.vu"},
{"name":"Bergnaum, Rohan and Howell","address":"07 Corry Way","city":"Memphis","state":"Tennessee","postalCode":"38119","url":"https://netscape.com"},
{"name":"Daniel-Auer","address":"1 Crescent Oaks Hill","city":"Hyattsville","state":"Maryland","postalCode":"20784","url":"https://oakley.com"},
{"name":"Haag LLC","address":"7895 Old Shore Point","city":"New York City","state":"New York","postalCode":"10034","url":"https://wikia.com"},
{"name":"Hirthe and Sons","address":"54 Sundown Avenue","city":"Albuquerque","state":"New Mexico","postalCode":"87201","url":"http://timesonline.co.uk"},
{"name":"Barrows and Sons","address":"63 Jana Lane","city":"Detroit","state":"Michigan","postalCode":"48258","url":"https://ustream.tv"},
{"name":"Ortiz Group","address":"877 Cardinal Parkway","city":"Austin","state":"Texas","postalCode":"78715","url":"https://state.gov"},
{"name":"Kuphal-Wunsch","address":"8 Basil Avenue","city":"Pinellas Park","state":"Florida","postalCode":"34665","url":"http://ucoz.ru"},
{"name":"McClure, O'Kon and Bahringer","address":"7915 Laurel Crossing","city":"Springfield","state":"Missouri","postalCode":"65810","url":"http://ask.com"},
{"name":"Hoppe, Dickinson and Swaniawski","address":"764 Muir Street","city":"El Paso","state":"Texas","postalCode":"88589","url":"https://usgs.gov"},
{"name":"Osinski, Muller and Volkman","address":"0104 Sutherland Alley","city":"Houston","state":"Texas","postalCode":"77293","url":"http://blogtalkradio.com"},
{"name":"Wolff and Sons","address":"66 Division Lane","city":"San Jose","state":"California","postalCode":"95173","url":"https://shinystat.com"},
{"name":"Heidenreich, Hyatt and Bashirian","address":"903 Del Mar Plaza","city":"Rochester","state":"New York","postalCode":"14652","url":"http://springer.com"},
{"name":"Bahringer, Waelchi and Wyman","address":"1552 Forest Run Avenue","city":"Atlanta","state":"Georgia","postalCode":"31132","url":"http://mtv.com"},
{"name":"Gaylord, Gutkowski and Weissnat","address":"27468 Garrison Lane","city":"Indianapolis","state":"Indiana","postalCode":"46216","url":"http://wordpress.com"},
{"name":"Beier, Mosciski and Heathcote","address":"81 Holy Cross Terrace","city":"Miami","state":"Florida","postalCode":"33190","url":"http://google.com.hk"},
{"name":"Pouros-Lowe","address":"963 Johnson Parkway","city":"Anchorage","state":"Alaska","postalCode":"99507","url":"https://adobe.com"},
{"name":"Bergstrom, Wuckert and Erdman","address":"9076 Fulton Parkway","city":"Dallas","state":"Texas","postalCode":"75251","url":"https://csmonitor.com"},
{"name":"Hayes-Miller","address":"1 Schmedeman Drive","city":"Wilkes Barre","state":"Pennsylvania","postalCode":"18706","url":"https://hugedomains.com"},
{"name":"Ondricka-Kuvalis","address":"80 Havey Alley","city":"Juneau","state":"Alaska","postalCode":"99812","url":"http://booking.com"},
{"name":"Keebler and Sons","address":"5 Division Road","city":"Boston","state":"Massachusetts","postalCode":"02298","url":"https://loc.gov"},
{"name":"Mueller-Rogahn","address":"4243 Southridge Parkway","city":"Cincinnati","state":"Ohio","postalCode":"45264","url":"http://noaa.gov"},
{"name":"Doyle-Stracke","address":"0 Tomscot Trail","city":"Evansville","state":"Indiana","postalCode":"47747","url":"http://trellian.com"},
{"name":"Collier, Nader and Hammes","address":"3 Oneill Plaza","city":"Dallas","state":"Texas","postalCode":"75397","url":"https://paginegialle.it"},
{"name":"Schuster-Ziemann","address":"7 Kings Hill","city":"Clearwater","state":"Florida","postalCode":"34620","url":"https://auda.org.au"},
{"name":"Harvey-Douglas","address":"16120 Anniversary Alley","city":"Katy","state":"Texas","postalCode":"77493","url":"https://japanpost.jp"},
{"name":"Barton Group","address":"3 Heffernan Pass","city":"San Francisco","state":"California","postalCode":"94159","url":"http://histats.com"},
{"name":"Turcotte-Bauch","address":"2624 Pearson Hill","city":"Rochester","state":"New York","postalCode":"14652","url":"http://buzzfeed.com"},
{"name":"Bergstrom, Thiel and Nader","address":"4319 Oriole Street","city":"Las Vegas","state":"Nevada","postalCode":"89150","url":"http://arstechnica.com"},
{"name":"Wyman, Herman and Donnelly","address":"99648 Anhalt Lane","city":"Charlotte","state":"North Carolina","postalCode":"28278","url":"http://biblegateway.com"},
{"name":"Grady Group","address":"9714 Texas Junction","city":"Saint Louis","state":"Missouri","postalCode":"63180","url":"https://yellowpages.com"},
{"name":"Bartell Inc","address":"57243 Di Loreto Lane","city":"Dayton","state":"Ohio","postalCode":"45490","url":"http://desdev.cn"},
{"name":"Flatley, Bayer and Moore","address":"863 Prairie Rose Hill","city":"Tulsa","state":"Oklahoma","postalCode":"74193","url":"https://house.gov"},
{"name":"Paucek Group","address":"44 Declaration Place","city":"Louisville","state":"Kentucky","postalCode":"40225","url":"https://microsoft.com"},
{"name":"Boehm, Blanda and Fisher","address":"5 Oak Plaza","city":"Madison","state":"Wisconsin","postalCode":"53710","url":"https://creativecommons.org"},
{"name":"Reynolds LLC","address":"591 Laurel Crossing","city":"Honolulu","state":"Hawaii","postalCode":"96845","url":"https://accuweather.com"},
{"name":"Kuhlman and Sons","address":"08 Jay Parkway","city":"Houston","state":"Texas","postalCode":"77085","url":"https://msn.com"},
{"name":"Mante, Greenfelder and Feeney","address":"46 Grover Lane","city":"New Orleans","state":"Louisiana","postalCode":"70142","url":"https://blogspot.com"},
{"name":"Kautzer, Gleichner and Lebsack","address":"184 Center Park","city":"Sioux Falls","state":"South Dakota","postalCode":"57198","url":"https://ovh.net"},
{"name":"Monahan Inc","address":"045 Darwin Court","city":"Fort Wayne","state":"Indiana","postalCode":"46825","url":"https://abc.net.au"},
{"name":"Gerhold and Sons","address":"36 Orin Place","city":"Cincinnati","state":"Ohio","postalCode":"45208","url":"https://amazonaws.com"},
{"name":"Harris, Kulas and Skiles","address":"83 Vidon Terrace","city":"El Paso","state":"Texas","postalCode":"88569","url":"http://livejournal.com"},
{"name":"Little, Zieme and Muller","address":"7517 Anthes Lane","city":"Honolulu","state":"Hawaii","postalCode":"96840","url":"https://issuu.com"},
{"name":"Kiehn-Douglas","address":"4383 Grim Terrace","city":"Las Vegas","state":"Nevada","postalCode":"89166","url":"http://delicious.com"},
{"name":"Lueilwitz, Wuckert and Swaniawski","address":"6 Grover Alley","city":"Des Moines","state":"Iowa","postalCode":"50320","url":"https://typepad.com"},
{"name":"Jacobson Group","address":"168 Spohn Terrace","city":"Jamaica","state":"New York","postalCode":"11436","url":"http://addtoany.com"},
{"name":"Ritchie Inc","address":"15685 Fallview Park","city":"Tampa","state":"Florida","postalCode":"33610","url":"http://fc2.com"},
{"name":"Beahan, Balistreri and Jakubowski","address":"24875 Fulton Plaza","city":"Bakersfield","state":"California","postalCode":"93399","url":"http://last.fm"},
{"name":"Collier, Schinner and Waters","address":"496 Melby Drive","city":"Terre Haute","state":"Indiana","postalCode":"47805","url":"http://printfriendly.com"},
{"name":"Gleason-Mosciski","address":"72 2nd Parkway","city":"Boca Raton","state":"Florida","postalCode":"33487","url":"https://lulu.com"},
{"name":"Daugherty, Eichmann and Kutch","address":"8 Golf Course Trail","city":"Santa Monica","state":"California","postalCode":"90405","url":"https://blogspot.com"},
{"name":"D'Amore-Funk","address":"7 Elka Center","city":"Johnstown","state":"Pennsylvania","postalCode":"15906","url":"http://amazon.com"},
{"name":"Weissnat, Bashirian and Schultz","address":"406 Blackbird Alley","city":"El Paso","state":"Texas","postalCode":"79950","url":"https://nydailynews.com"},
{"name":"Prohaska-Grimes","address":"563 Kinsman Terrace","city":"Fort Lauderdale","state":"Florida","postalCode":"33330","url":"https://army.mil"},
{"name":"Thiel Group","address":"93 Londonderry Hill","city":"Saint Paul","state":"Minnesota","postalCode":"55166","url":"https://edublogs.org"},
{"name":"Hartmann, Goyette and Wehner","address":"7 Muir Pass","city":"New York City","state":"New York","postalCode":"10004","url":"http://theatlantic.com"},
{"name":"Hettinger-Graham","address":"9 Gale Court","city":"Gaithersburg","state":"Maryland","postalCode":"20883","url":"http://creativecommons.org"},
{"name":"Mann, Hammes and Armstrong","address":"1 Amoth Pass","city":"San Francisco","state":"California","postalCode":"94177","url":"http://google.es"},
{"name":"Hamill-Crona","address":"565 Hansons Junction","city":"Amarillo","state":"Texas","postalCode":"79176","url":"http://shareasale.com"},
{"name":"Hand Group","address":"6 Bluejay Avenue","city":"Spokane","state":"Washington","postalCode":"99210","url":"http://hostgator.com"},
{"name":"Dicki, Leannon and Nolan","address":"55998 Dennis Parkway","city":"Newport News","state":"Virginia","postalCode":"23612","url":"https://issuu.com"},
{"name":"Kautzer, Pouros and Huels","address":"17 Raven Circle","city":"San Francisco","state":"California","postalCode":"94142","url":"http://prnewswire.com"},
{"name":"Jacobi, Stroman and Dietrich","address":"879 Anderson Alley","city":"Nashville","state":"Tennessee","postalCode":"37220","url":"https://chronoengine.com"},
{"name":"Adams, Beer and Baumbach","address":"9 Johnson Street","city":"Dallas","state":"Texas","postalCode":"75379","url":"http://clickbank.net"},
{"name":"Bernhard-Kohler","address":"92602 Declaration Alley","city":"Long Beach","state":"California","postalCode":"90847","url":"http://amazon.com"},
{"name":"Ruecker, Kilback and Casper","address":"07281 Hanson Trail","city":"Salem","state":"Oregon","postalCode":"97312","url":"http://shareasale.com"},
{"name":"Koss, Champlin and Kessler","address":"2 Browning Avenue","city":"Idaho Falls","state":"Idaho","postalCode":"83405","url":"http://cornell.edu"},
{"name":"Hammes and Sons","address":"24 Bluejay Point","city":"Fresno","state":"California","postalCode":"93794","url":"http://simplemachines.org"},
{"name":"Klocko Inc","address":"0 Jenna Terrace","city":"Miami","state":"Florida","postalCode":"33129","url":"https://bandcamp.com"},
{"name":"Toy Group","address":"1275 Bunting Terrace","city":"Grand Rapids","state":"Michigan","postalCode":"49544","url":"https://virginia.edu"},
{"name":"Stark Inc","address":"6 Eagan Court","city":"Corpus Christi","state":"Texas","postalCode":"78475","url":"https://dion.ne.jp"},
{"name":"Nikolaus, Walker and Crist","address":"079 Thackeray Parkway","city":"Wichita","state":"Kansas","postalCode":"67236","url":"https://google.nl"},
{"name":"Schneider and Sons","address":"14738 Summit Alley","city":"Raleigh","state":"North Carolina","postalCode":"27626","url":"http://elpais.com"},
{"name":"Volkman-Kovacek","address":"438 Havey Alley","city":"Cincinnati","state":"Ohio","postalCode":"45213","url":"http://hexun.com"},
{"name":"Kohler, Kemmer and Bernier","address":"16691 Texas Pass","city":"Little Rock","state":"Arkansas","postalCode":"72231","url":"http://yelp.com"},
{"name":"Kshlerin, Zemlak and Lakin","address":"1 Colorado Center","city":"Cincinnati","state":"Ohio","postalCode":"45208","url":"https://bigcartel.com"},
{"name":"Johns-Thompson","address":"803 Graceland Circle","city":"Charlotte","state":"North Carolina","postalCode":"28284","url":"https://bing.com"},
{"name":"Beer and Sons","address":"871 Blaine Circle","city":"Arlington","state":"Texas","postalCode":"76004","url":"http://newyorker.com"},
{"name":"Fahey-Parisian","address":"3 Westend Terrace","city":"Chicago","state":"Illinois","postalCode":"60646","url":"http://ibm.com"},
{"name":"Bins Group","address":"5075 Algoma Avenue","city":"Norcross","state":"Georgia","postalCode":"30092","url":"http://china.com.cn"},
{"name":"Hintz-Shanahan","address":"4 Brickson Park Place","city":"Louisville","state":"Kentucky","postalCode":"40225","url":"http://soup.io"},
{"name":"Cartwright, Wiza and Morissette","address":"6833 Manley Place","city":"West Hartford","state":"Connecticut","postalCode":"06127","url":"https://state.tx.us"},
{"name":"Bernhard-Jacobson","address":"0 Lyons Hill","city":"Reading","state":"Pennsylvania","postalCode":"19610","url":"https://chron.com"},
{"name":"Blick-Osinski","address":"0307 Ludington Place","city":"Daytona Beach","state":"Florida","postalCode":"32118","url":"http://msn.com"},
{"name":"VonRueden, Walsh and Rath","address":"916 Thierer Junction","city":"Durham","state":"North Carolina","postalCode":"27705","url":"https://intel.com"},
{"name":"Hane Inc","address":"4481 Acker Crossing","city":"Chicago","state":"Illinois","postalCode":"60636","url":"http://networkadvertising.org"},
{"name":"Erdman, Roberts and Doyle","address":"5 Mayfield Junction","city":"Seattle","state":"Washington","postalCode":"98109","url":"http://ocn.ne.jp"},
{"name":"Smitham, Roob and Upton","address":"6997 Doe Crossing Way","city":"Rochester","state":"New York","postalCode":"14652","url":"https://ft.com"},
{"name":"Schaefer, McCullough and Schamberger","address":"39013 Montana Terrace","city":"Long Beach","state":"California","postalCode":"90810","url":"https://sitemeter.com"},
{"name":"Nitzsche Inc","address":"66166 Corben Trail","city":"Los Angeles","state":"California","postalCode":"90010","url":"http://ifeng.com"},
{"name":"Romaguera Group","address":"90 Grayhawk Trail","city":"Buffalo","state":"New York","postalCode":"14263","url":"https://noaa.gov"},
{"name":"McGlynn, Herzog and Schneider","address":"73 Katie Court","city":"Buffalo","state":"New York","postalCode":"14276","url":"http://apache.org"},
{"name":"Pfeffer, Padberg and Rempel","address":"5 Village Green Plaza","city":"Atlanta","state":"Georgia","postalCode":"30392","url":"https://boston.com"},
{"name":"Beahan, Kreiger and Orn","address":"6098 Meadow Ridge Point","city":"Moreno Valley","state":"California","postalCode":"92555","url":"http://ehow.com"},
{"name":"Kerluke, Bechtelar and Dach","address":"54917 Delaware Drive","city":"San Francisco","state":"California","postalCode":"94110","url":"http://imageshack.us"},
{"name":"Kuhn, Ankunding and Farrell","address":"46492 Leroy Avenue","city":"Baton Rouge","state":"Louisiana","postalCode":"70836","url":"https://nifty.com"},
{"name":"Cremin-Olson","address":"3 Union Court","city":"Syracuse","state":"New York","postalCode":"13210","url":"https://va.gov"},
{"name":"Krajcik LLC","address":"92 Buena Vista Avenue","city":"Albuquerque","state":"New Mexico","postalCode":"87110","url":"http://icio.us"},
{"name":"Terry Group","address":"45256 Hovde Junction","city":"Henderson","state":"Nevada","postalCode":"89012","url":"http://last.fm"},
{"name":"Funk-Champlin","address":"0 Carberry Circle","city":"Pasadena","state":"California","postalCode":"91109","url":"https://feedburner.com"},
{"name":"Rohan-Hoeger","address":"36996 New Castle Drive","city":"El Paso","state":"Texas","postalCode":"79984","url":"http://yolasite.com"},
{"name":"Roberts, Russel and O'Reilly","address":"45 Swallow Lane","city":"Great Neck","state":"New York","postalCode":"11024","url":"http://bizjournals.com"},
{"name":"Weber, Mosciski and Considine","address":"57 Straubel Place","city":"Fort Wayne","state":"Indiana","postalCode":"46896","url":"http://illinois.edu"},
{"name":"Yundt-Kunze","address":"0966 Pond Terrace","city":"Washington","state":"District of Columbia","postalCode":"20062","url":"http://deliciousdays.com"},
{"name":"Boyer-Simonis","address":"5 Alpine Circle","city":"Washington","state":"District of Columbia","postalCode":"56944","url":"http://networksolutions.com"},
{"name":"O'Keefe, Bogisich and Lynch","address":"56576 Sullivan Center","city":"Visalia","state":"California","postalCode":"93291","url":"http://usa.gov"},
{"name":"Greenholt and Sons","address":"0941 Bashford Circle","city":"Grand Rapids","state":"Michigan","postalCode":"49510","url":"http://google.de"},
{"name":"Sawayn, Treutel and Durgan","address":"7887 Redwing Street","city":"Evansville","state":"Indiana","postalCode":"47712","url":"http://aol.com"},
{"name":"Breitenberg-Raynor","address":"3584 Knutson Parkway","city":"Frankfort","state":"Kentucky","postalCode":"40618","url":"https://un.org"},
{"name":"Hegmann-Runolfsson","address":"7 Anthes Point","city":"Nashville","state":"Tennessee","postalCode":"37245","url":"https://admin.ch"},
{"name":"Littel-Jakubowski","address":"6390 Melrose Plaza","city":"Aiken","state":"South Carolina","postalCode":"29805","url":"https://tamu.edu"},
{"name":"Buckridge, Legros and Leuschke","address":"56 Melody Terrace","city":"Tucson","state":"Arizona","postalCode":"85715","url":"https://nifty.com"},
{"name":"Runte-Feil","address":"3 Lindbergh Point","city":"Dallas","state":"Texas","postalCode":"75205","url":"https://pbs.org"},
{"name":"Corkery and Sons","address":"98230 Hintze Point","city":"Washington","state":"District of Columbia","postalCode":"20268","url":"https://blinklist.com"},
{"name":"Cole, Gleichner and Larkin","address":"8973 Mifflin Terrace","city":"Augusta","state":"Georgia","postalCode":"30905","url":"http://t-online.de"},
{"name":"Quitzon-Nienow","address":"663 Rusk Pass","city":"Albuquerque","state":"New Mexico","postalCode":"87115","url":"http://geocities.com"},
{"name":"Moore Group","address":"48 Londonderry Street","city":"Fort Wayne","state":"Indiana","postalCode":"46814","url":"http://foxnews.com"},
{"name":"Ondricka, Schultz and Dooley","address":"1047 Pierstorff Street","city":"Kissimmee","state":"Florida","postalCode":"34745","url":"http://redcross.org"},
{"name":"Sawayn-Reynolds","address":"16577 Prentice Trail","city":"Dallas","state":"Texas","postalCode":"75277","url":"http://ucsd.edu"},
{"name":"Swaniawski Inc","address":"38 Anthes Junction","city":"Lawrenceville","state":"Georgia","postalCode":"30045","url":"http://loc.gov"},
{"name":"Metz-Hintz","address":"6 Dennis Lane","city":"Wilkes Barre","state":"Pennsylvania","postalCode":"18768","url":"https://t-online.de"},
{"name":"Gusikowski-Krajcik","address":"1324 Upham Way","city":"Hampton","state":"Virginia","postalCode":"23663","url":"http://wsj.com"},
{"name":"Hermann, O'Kon and Turner","address":"095 Toban Place","city":"Fort Wayne","state":"Indiana","postalCode":"46852","url":"http://opera.com"},
{"name":"Klocko-Anderson","address":"2 Corry Point","city":"Marietta","state":"Georgia","postalCode":"30066","url":"http://reference.com"},
{"name":"Stokes-Roob","address":"613 Cherokee Court","city":"Metairie","state":"Louisiana","postalCode":"70033","url":"http://ebay.co.uk"},
{"name":"Kunze, Russel and Hand","address":"8161 Bay Junction","city":"Cleveland","state":"Ohio","postalCode":"44118","url":"http://wiley.com"},
{"name":"Kuvalis, Bruen and Strosin","address":"56898 Express Drive","city":"Washington","state":"District of Columbia","postalCode":"20337","url":"https://qq.com"},
{"name":"Collins, Schmidt and Klocko","address":"94787 Buena Vista Place","city":"Mobile","state":"Alabama","postalCode":"36622","url":"http://php.net"},
{"name":"Casper-Smith","address":"559 Macpherson Circle","city":"Dayton","state":"Ohio","postalCode":"45419","url":"https://tripadvisor.com"},
{"name":"Wuckert-Zboncak","address":"02573 Ridge Oak Lane","city":"Elmira","state":"New York","postalCode":"14905","url":"http://shinystat.com"},
{"name":"Howe-Thompson","address":"4 Scofield Junction","city":"Durham","state":"North Carolina","postalCode":"27717","url":"http://trellian.com"},
{"name":"Schmitt, Bergnaum and Haley","address":"6883 Banding Point","city":"Jamaica","state":"New York","postalCode":"11480","url":"http://posterous.com"},
{"name":"Jacobs, Wehner and Ankunding","address":"2 Mariners Cove Avenue","city":"Montgomery","state":"Alabama","postalCode":"36195","url":"http://nydailynews.com"},
{"name":"Effertz, Runte and Carroll","address":"33179 Sloan Pass","city":"Houston","state":"Texas","postalCode":"77255","url":"https://hatena.ne.jp"},
{"name":"Abbott-Kreiger","address":"46153 Namekagon Alley","city":"Jamaica","state":"New York","postalCode":"11480","url":"https://ca.gov"},
{"name":"Gaylord-Reichert","address":"30810 Dexter Place","city":"Kansas City","state":"Missouri","postalCode":"64144","url":"http://fema.gov"},
{"name":"Rogahn, Klein and Hammes","address":"3280 Pawling Parkway","city":"Washington","state":"District of Columbia","postalCode":"20591","url":"http://google.es"},
{"name":"Gerhold LLC","address":"469 Pierstorff Junction","city":"Lincoln","state":"Nebraska","postalCode":"68517","url":"http://cdc.gov"},
{"name":"Fahey-Hagenes","address":"0633 Oneill Junction","city":"Rochester","state":"Minnesota","postalCode":"55905","url":"https://wix.com"},
{"name":"Green-Frami","address":"78673 La Follette Trail","city":"El Paso","state":"Texas","postalCode":"88574","url":"https://imdb.com"},
{"name":"Balistreri Inc","address":"4953 Ryan Alley","city":"Houston","state":"Texas","postalCode":"77276","url":"http://npr.org"},
{"name":"Moen, O'Connell and Franecki","address":"538 Dryden Place","city":"Washington","state":"District of Columbia","postalCode":"20210","url":"https://pcworld.com"},
{"name":"Simonis, Durgan and Ward","address":"4747 Eagle Crest Terrace","city":"Dallas","state":"Texas","postalCode":"75236","url":"http://ezinearticles.com"},
{"name":"Klein, Brekke and Gerlach","address":"291 Farmco Alley","city":"Anderson","state":"South Carolina","postalCode":"29625","url":"https://weebly.com"},
{"name":"Brown Inc","address":"86929 Hintze Point","city":"Richmond","state":"Virginia","postalCode":"23228","url":"http://desdev.cn"},
{"name":"Mosciski, Wuckert and Cummerata","address":"139 Ilene Way","city":"Columbus","state":"Ohio","postalCode":"43240","url":"https://sourceforge.net"},
{"name":"Bayer, Renner and DuBuque","address":"41 Old Gate Alley","city":"Dallas","state":"Texas","postalCode":"75246","url":"http://go.com"},
{"name":"Mayer-Zulauf","address":"3 Armistice Hill","city":"Washington","state":"District of Columbia","postalCode":"20551","url":"http://apache.org"},
{"name":"Kassulke-Gleason","address":"42258 Dexter Center","city":"Boise","state":"Idaho","postalCode":"83711","url":"https://deviantart.com"},
{"name":"Hand Inc","address":"247 Moulton Parkway","city":"Provo","state":"Utah","postalCode":"84605","url":"https://indiatimes.com"},
{"name":"Senger Inc","address":"3855 Grim Street","city":"New Orleans","state":"Louisiana","postalCode":"70165","url":"http://bravesites.com"},
{"name":"Hoeger Group","address":"9466 Caliangt Plaza","city":"Wilmington","state":"Delaware","postalCode":"19810","url":"https://squarespace.com"},
{"name":"Spinka, Smitham and Auer","address":"030 Kenwood Lane","city":"Burbank","state":"California","postalCode":"91520","url":"http://si.edu"},
{"name":"Feest, Little and Anderson","address":"1 Cherokee Road","city":"Pueblo","state":"Colorado","postalCode":"81010","url":"http://edublogs.org"},
{"name":"Mueller, Goodwin and Morar","address":"31 Lotheville Way","city":"Montgomery","state":"Alabama","postalCode":"36195","url":"https://toplist.cz"},
{"name":"Kessler-Kerluke","address":"32 Division Center","city":"Hartford","state":"Connecticut","postalCode":"06152","url":"http://wiley.com"},
{"name":"Crona-Reilly","address":"8749 Crownhardt Trail","city":"Boulder","state":"Colorado","postalCode":"80310","url":"https://networkadvertising.org"},
{"name":"Wiegand-Bashirian","address":"79 Lunder Park","city":"Pittsburgh","state":"Pennsylvania","postalCode":"15255","url":"http://symantec.com"},
{"name":"Bailey, Abernathy and Crona","address":"26 Carioca Lane","city":"Washington","state":"District of Columbia","postalCode":"20591","url":"https://theguardian.com"},
{"name":"Wunsch-Waelchi","address":"81 Manley Drive","city":"Spokane","state":"Washington","postalCode":"99220","url":"http://reuters.com"},
{"name":"Marks LLC","address":"610 Butternut Street","city":"Buffalo","state":"New York","postalCode":"14263","url":"http://yahoo.com"},
{"name":"Reinger, Nikolaus and Douglas","address":"12661 Heath Circle","city":"San Diego","state":"California","postalCode":"92165","url":"https://thetimes.co.uk"},
{"name":"O'Keefe Group","address":"24 Ilene Trail","city":"Flint","state":"Michigan","postalCode":"48550","url":"http://surveymonkey.com"},
{"name":"Mertz and Sons","address":"975 Amoth Court","city":"Virginia Beach","state":"Virginia","postalCode":"23459","url":"http://businessinsider.com"},
{"name":"Beatty, Leannon and Jast","address":"41449 Forest Run Circle","city":"Tulsa","state":"Oklahoma","postalCode":"74149","url":"https://ezinearticles.com"},
{"name":"Leuschke-Osinski","address":"40573 Burrows Hill","city":"York","state":"Pennsylvania","postalCode":"17405","url":"https://wikispaces.com"},
{"name":"Barton LLC","address":"5539 Goodland Court","city":"Las Vegas","state":"Nevada","postalCode":"89135","url":"http://barnesandnoble.com"},
{"name":"Auer, Mitchell and Swaniawski","address":"5860 Service Crossing","city":"Evansville","state":"Indiana","postalCode":"47705","url":"http://typepad.com"},
{"name":"Ward Group","address":"4 Basil Plaza","city":"Pensacola","state":"Florida","postalCode":"32505","url":"http://eepurl.com"},
{"name":"Boyle-Borer","address":"6 Petterle Hill","city":"New York City","state":"New York","postalCode":"10019","url":"https://e-recht24.de"},
{"name":"Abshire, Mertz and Stamm","address":"5 Charing Cross Parkway","city":"Phoenix","state":"Arizona","postalCode":"85067","url":"https://smh.com.au"},
{"name":"Smitham, Nolan and Sauer","address":"842 Erie Crossing","city":"Reno","state":"Nevada","postalCode":"89505","url":"http://washington.edu"},
{"name":"Abshire, Pfeffer and Schuster","address":"159 Merchant Crossing","city":"Springfield","state":"Missouri","postalCode":"65805","url":"http://salon.com"},
{"name":"Cartwright-Fahey","address":"9281 Bellgrove Pass","city":"Duluth","state":"Georgia","postalCode":"30096","url":"http://blog.com"},
{"name":"Heller Group","address":"98816 Morrow Alley","city":"Orlando","state":"Florida","postalCode":"32803","url":"https://mail.ru"},
{"name":"Boyer, Sauer and Jast","address":"30743 Thierer Place","city":"Amarillo","state":"Texas","postalCode":"79118","url":"http://soundcloud.com"},
{"name":"Schumm-Reichel","address":"9 Atwood Center","city":"Akron","state":"Ohio","postalCode":"44393","url":"https://home.pl"},
{"name":"Bechtelar LLC","address":"908 Marquette Lane","city":"New York City","state":"New York","postalCode":"10024","url":"http://usda.gov"},
{"name":"Lindgren and Sons","address":"0 Bunker Hill Plaza","city":"Wilmington","state":"Delaware","postalCode":"19810","url":"https://purevolume.com"},
{"name":"D'Amore, Marvin and Schmeler","address":"61947 Loomis Park","city":"Pinellas Park","state":"Florida","postalCode":"34665","url":"https://dagondesign.com"},
{"name":"Huel-Hahn","address":"97 Armistice Court","city":"Des Moines","state":"Iowa","postalCode":"50305","url":"https://oracle.com"},
{"name":"Krajcik-Barrows","address":"1 Raven Parkway","city":"Irving","state":"Texas","postalCode":"75037","url":"https://macromedia.com"},
{"name":"Johnson and Sons","address":"13 Rigney Plaza","city":"Atlanta","state":"Georgia","postalCode":"30356","url":"https://aol.com"},
{"name":"Jacobs-Cronin","address":"002 Marquette Point","city":"Nashville","state":"Tennessee","postalCode":"37220","url":"https://independent.co.uk"},
{"name":"Rempel-Terry","address":"16 Holmberg Park","city":"Edmond","state":"Oklahoma","postalCode":"73034","url":"http://ocn.ne.jp"},
{"name":"Welch, Turcotte and Shanahan","address":"30506 Onsgard Trail","city":"Des Moines","state":"Iowa","postalCode":"50936","url":"http://scientificamerican.com"},
{"name":"Abbott and Sons","address":"56 Transport Center","city":"Pittsburgh","state":"Pennsylvania","postalCode":"15205","url":"http://youku.com"},
{"name":"Tillman-Pacocha","address":"5 Sloan Road","city":"Salt Lake City","state":"Utah","postalCode":"84199","url":"http://columbia.edu"},
{"name":"Kris Group","address":"5 Spenser Hill","city":"Hampton","state":"Virginia","postalCode":"23663","url":"https://telegraph.co.uk"},
{"name":"Cronin and Sons","address":"4 Oakridge Junction","city":"Waco","state":"Texas","postalCode":"76711","url":"https://gmpg.org"},
{"name":"Rippin and Sons","address":"902 Colorado Point","city":"San Antonio","state":"Texas","postalCode":"78245","url":"https://comcast.net"},
{"name":"Fisher, Harris and McDermott","address":"40 Hintze Terrace","city":"Roanoke","state":"Virginia","postalCode":"24048","url":"https://eventbrite.com"},
{"name":"Frami-McClure","address":"2570 La Follette Parkway","city":"Boston","state":"Massachusetts","postalCode":"02216","url":"https://businessweek.com"},
{"name":"McClure, Bernier and Stamm","address":"220 Anzinger Center","city":"Greensboro","state":"North Carolina","postalCode":"27404","url":"http://tuttocitta.it"},
{"name":"Wyman, Koss and Legros","address":"14094 Bay Avenue","city":"Rochester","state":"New York","postalCode":"14639","url":"https://blogger.com"},
{"name":"Hagenes-Zemlak","address":"39090 Fair Oaks Place","city":"New York City","state":"New York","postalCode":"10125","url":"https://goo.ne.jp"},
{"name":"McClure, Leannon and Bogan","address":"9 Troy Court","city":"Phoenix","state":"Arizona","postalCode":"85072","url":"https://howstuffworks.com"},
{"name":"Abbott Inc","address":"2 Ludington Place","city":"Chicago","state":"Illinois","postalCode":"60697","url":"https://youtube.com"},
{"name":"VonRueden, Turcotte and Kirlin","address":"058 Charing Cross Center","city":"Saint Petersburg","state":"Florida","postalCode":"33731","url":"https://studiopress.com"},
{"name":"Gorczany-Grant","address":"28 Banding Point","city":"Columbia","state":"South Carolina","postalCode":"29240","url":"https://printfriendly.com"},
{"name":"Mante, Brekke and Labadie","address":"576 Dawn Plaza","city":"Fort Wayne","state":"Indiana","postalCode":"46896","url":"http://qq.com"},
{"name":"Smitham-O'Reilly","address":"2 Lerdahl Court","city":"Sarasota","state":"Florida","postalCode":"34233","url":"http://nifty.com"},
{"name":"Weber Group","address":"855 1st Junction","city":"Chicago","state":"Illinois","postalCode":"60604","url":"https://harvard.edu"},
{"name":"Hackett LLC","address":"02 Boyd Park","city":"Alexandria","state":"Virginia","postalCode":"22333","url":"http://friendfeed.com"},
{"name":"Cruickshank and Sons","address":"91678 Manley Pass","city":"Roanoke","state":"Virginia","postalCode":"24009","url":"https://latimes.com"},
{"name":"Pfannerstill, Walker and Kuhic","address":"0 Briar Crest Terrace","city":"Arlington","state":"Virginia","postalCode":"22205","url":"https://ucsd.edu"},
{"name":"Bauch, Mante and Beier","address":"74 Bartillon Avenue","city":"Lakewood","state":"Washington","postalCode":"98498","url":"http://vinaora.com"},
{"name":"Abernathy Inc","address":"3147 3rd Road","city":"Dallas","state":"Texas","postalCode":"75323","url":"https://tinypic.com"},
{"name":"Kuhlman-Klocko","address":"78017 Eliot Hill","city":"Garden Grove","state":"California","postalCode":"92645","url":"http://ft.com"},
{"name":"Botsford, Hamill and Wisozk","address":"68 Sugar Junction","city":"Melbourne","state":"Florida","postalCode":"32941","url":"https://tamu.edu"},
{"name":"Koch Inc","address":"1 Jenifer Avenue","city":"Pasadena","state":"California","postalCode":"91103","url":"https://paginegialle.it"},
{"name":"Dooley, Grimes and Daugherty","address":"7680 Shoshone Street","city":"Boston","state":"Massachusetts","postalCode":"02283","url":"https://macromedia.com"},
{"name":"Bruen Group","address":"787 8th Drive","city":"Delray Beach","state":"Florida","postalCode":"33448","url":"https://skyrock.com"},
{"name":"Hessel-Jacobi","address":"7 Merry Lane","city":"Chicago","state":"Illinois","postalCode":"60619","url":"https://ibm.com"},
{"name":"Kiehn Group","address":"2 Southridge Circle","city":"Olympia","state":"Washington","postalCode":"98506","url":"http://e-recht24.de"},
{"name":"Cartwright-Pfeffer","address":"43 Gulseth Court","city":"Seminole","state":"Florida","postalCode":"34642","url":"http://berkeley.edu"},
{"name":"Schmidt and Sons","address":"6 Trailsway Terrace","city":"Akron","state":"Ohio","postalCode":"44393","url":"https://economist.com"},
{"name":"Fahey LLC","address":"4 Division Junction","city":"Fort Smith","state":"Arkansas","postalCode":"72905","url":"http://blogspot.com"},
{"name":"O'Kon-Casper","address":"184 Hooker Avenue","city":"Houston","state":"Texas","postalCode":"77206","url":"http://scribd.com"},
{"name":"Gusikowski-Rosenbaum","address":"054 Trailsway Avenue","city":"Denton","state":"Texas","postalCode":"76205","url":"https://google.de"},
{"name":"Kris, Bechtelar and Barton","address":"44 Crescent Oaks Crossing","city":"Savannah","state":"Georgia","postalCode":"31405","url":"https://tmall.com"},
{"name":"Conn-Hermiston","address":"2207 Bunting Junction","city":"Pasadena","state":"California","postalCode":"91186","url":"http://cbc.ca"},
{"name":"Hills Group","address":"5 Luster Court","city":"Chicago","state":"Illinois","postalCode":"60619","url":"https://bizjournals.com"},
{"name":"Donnelly, Becker and Thiel","address":"662 Eastwood Parkway","city":"Philadelphia","state":"Pennsylvania","postalCode":"19093","url":"https://usgs.gov"},
{"name":"Renner-Altenwerth","address":"9 Summer Ridge Parkway","city":"Nashville","state":"Tennessee","postalCode":"37250","url":"https://cbc.ca"},
{"name":"Hintz-Hayes","address":"22091 Columbus Lane","city":"Houston","state":"Texas","postalCode":"77271","url":"http://hubpages.com"},
{"name":"Wehner, Considine and Corwin","address":"57726 Esch Trail","city":"Glendale","state":"Arizona","postalCode":"85311","url":"https://arizona.edu"},
{"name":"Sawayn-Hyatt","address":"42354 Columbus Junction","city":"Baltimore","state":"Maryland","postalCode":"21275","url":"https://mapy.cz"},
{"name":"Murray Inc","address":"06187 Meadow Ridge Place","city":"Cincinnati","state":"Ohio","postalCode":"45208","url":"https://si.edu"},
{"name":"Moore, Hagenes and Leffler","address":"06 Johnson Court","city":"Saint Louis","state":"Missouri","postalCode":"63121","url":"http://adobe.com"},
{"name":"O'Connell-Adams","address":"9023 Bowman Alley","city":"North Port","state":"Florida","postalCode":"34290","url":"https://nydailynews.com"},
{"name":"King, Schinner and Bauch","address":"938 Columbus Terrace","city":"Houston","state":"Texas","postalCode":"77293","url":"https://amazon.co.jp"},
{"name":"Lesch and Sons","address":"15088 Katie Trail","city":"Tampa","state":"Florida","postalCode":"33661","url":"http://newsvine.com"},
{"name":"Gerlach, Mills and McClure","address":"70135 Katie Center","city":"Brooklyn","state":"New York","postalCode":"11210","url":"https://nationalgeographic.com"},
{"name":"Wolff, Cruickshank and Trantow","address":"1 Main Way","city":"Washington","state":"District of Columbia","postalCode":"20575","url":"https://xrea.com"},
{"name":"Marks, Ruecker and Herzog","address":"824 Anthes Place","city":"Evansville","state":"Indiana","postalCode":"47747","url":"https://mayoclinic.com"},
{"name":"Gislason, Hessel and Zboncak","address":"73 Stuart Drive","city":"Lexington","state":"Kentucky","postalCode":"40515","url":"http://friendfeed.com"},
{"name":"O'Conner-Reichel","address":"9275 Continental Drive","city":"Spokane","state":"Washington","postalCode":"99215","url":"http://epa.gov"},
{"name":"Stoltenberg, Waelchi and Sporer","address":"07 Jana Drive","city":"El Paso","state":"Texas","postalCode":"79968","url":"https://clickbank.net"},
{"name":"Stehr, Buckridge and Hermiston","address":"0 Northview Alley","city":"Shawnee Mission","state":"Kansas","postalCode":"66220","url":"http://pen.io"},
{"name":"Effertz Inc","address":"4830 Boyd Crossing","city":"Dallas","state":"Texas","postalCode":"75277","url":"https://reddit.com"},
{"name":"Rath and Sons","address":"95 Calypso Junction","city":"Milwaukee","state":"Wisconsin","postalCode":"53277","url":"https://shinystat.com"},
{"name":"Lind Inc","address":"62147 Sauthoff Center","city":"Tacoma","state":"Washington","postalCode":"98464","url":"http://infoseek.co.jp"},
{"name":"Bashirian LLC","address":"909 Eagle Crest Center","city":"Amarillo","state":"Texas","postalCode":"79176","url":"https://hao123.com"},
{"name":"Bednar Group","address":"3 Ramsey Alley","city":"Austin","state":"Texas","postalCode":"78715","url":"http://clickbank.net"},
{"name":"Lind and Sons","address":"8664 Susan Park","city":"Columbus","state":"Ohio","postalCode":"43284","url":"http://hexun.com"},
{"name":"Leuschke Inc","address":"10560 Comanche Alley","city":"Amarillo","state":"Texas","postalCode":"79105","url":"https://over-blog.com"},
{"name":"DuBuque, Harvey and Schneider","address":"2 Di Loreto Court","city":"El Paso","state":"Texas","postalCode":"79923","url":"https://nsw.gov.au"},
{"name":"Lynch-Wintheiser","address":"6532 Fordem Road","city":"Orlando","state":"Florida","postalCode":"32868","url":"https://baidu.com"},
{"name":"McDermott and Sons","address":"836 Dryden Crossing","city":"Akron","state":"Ohio","postalCode":"44305","url":"http://intel.com"},
{"name":"Batz, Brekke and Schoen","address":"13394 Menomonie Alley","city":"Oceanside","state":"California","postalCode":"92056","url":"https://yolasite.com"},
{"name":"Hilll Group","address":"92440 Old Shore Parkway","city":"Visalia","state":"California","postalCode":"93291","url":"http://istockphoto.com"},
{"name":"Anderson and Sons","address":"731 Manufacturers Crossing","city":"Dayton","state":"Ohio","postalCode":"45470","url":"https://chronoengine.com"},
{"name":"O'Connell, Walker and Labadie","address":"3 Spenser Road","city":"Memphis","state":"Tennessee","postalCode":"38136","url":"http://devhub.com"},
{"name":"Durgan LLC","address":"5 Eggendart Drive","city":"Jacksonville","state":"Florida","postalCode":"32215","url":"https://google.com.br"},
{"name":"Wilderman and Sons","address":"31370 Dwight Plaza","city":"Kingsport","state":"Tennessee","postalCode":"37665","url":"https://cornell.edu"},
{"name":"Littel, Hayes and Adams","address":"20366 Mitchell Lane","city":"Jamaica","state":"New York","postalCode":"11480","url":"https://goo.ne.jp"},
{"name":"Kunze LLC","address":"13 Texas Alley","city":"Colorado Springs","state":"Colorado","postalCode":"80995","url":"http://wikipedia.org"},
{"name":"Sporer LLC","address":"74142 Butterfield Trail","city":"Lakeland","state":"Florida","postalCode":"33811","url":"http://123-reg.co.uk"},
{"name":"Rau-Wilkinson","address":"825 Becker Crossing","city":"Honolulu","state":"Hawaii","postalCode":"96850","url":"http://technorati.com"},
{"name":"Gleason, Jerde and Batz","address":"3 Lighthouse Bay Parkway","city":"Van Nuys","state":"California","postalCode":"91499","url":"http://cbslocal.com"},
{"name":"Wilkinson LLC","address":"88 Little Fleur Crossing","city":"Shawnee Mission","state":"Kansas","postalCode":"66276","url":"http://mediafire.com"},
{"name":"Fadel and Sons","address":"7 Merrick Hill","city":"Tulsa","state":"Oklahoma","postalCode":"74103","url":"https://xinhuanet.com"},
{"name":"Thompson Group","address":"37613 Badeau Court","city":"Kansas City","state":"Missouri","postalCode":"64190","url":"http://usnews.com"},
{"name":"Bins LLC","address":"1 Village Green Pass","city":"Frankfort","state":"Kentucky","postalCode":"40618","url":"https://amazon.co.uk"},
{"name":"Beier-Senger","address":"99789 Westridge Way","city":"Lexington","state":"Kentucky","postalCode":"40596","url":"https://alibaba.com"},
{"name":"Welch, Padberg and Turner","address":"9 Schmedeman Junction","city":"Cleveland","state":"Ohio","postalCode":"44130","url":"http://discuz.net"},
{"name":"Champlin, Torp and Hoppe","address":"61 Hagan Road","city":"Atlanta","state":"Georgia","postalCode":"30336","url":"http://stumbleupon.com"},
{"name":"Rodriguez Inc","address":"4759 Monument Avenue","city":"Worcester","state":"Massachusetts","postalCode":"01654","url":"http://toplist.cz"},
{"name":"Quitzon, Rath and Von","address":"4900 Barby Point","city":"El Paso","state":"Texas","postalCode":"79989","url":"http://rambler.ru"},
{"name":"Will LLC","address":"8105 Russell Avenue","city":"Peoria","state":"Illinois","postalCode":"61629","url":"https://prweb.com"},
{"name":"Mayer, Windler and Herman","address":"48 Rieder Street","city":"Sacramento","state":"California","postalCode":"95823","url":"http://npr.org"},
{"name":"Littel Inc","address":"11 Anhalt Center","city":"Dallas","state":"Texas","postalCode":"75323","url":"http://ca.gov"},
{"name":"Boyer and Sons","address":"83731 Old Shore Terrace","city":"Shawnee Mission","state":"Kansas","postalCode":"66286","url":"https://ning.com"},
{"name":"Pollich Group","address":"68112 Westend Point","city":"Dallas","state":"Texas","postalCode":"75277","url":"http://wix.com"},
{"name":"Jaskolski-Heaney","address":"63 Linden Pass","city":"Philadelphia","state":"Pennsylvania","postalCode":"19160","url":"http://furl.net"},
{"name":"Upton-King","address":"2324 Corry Hill","city":"Washington","state":"District of Columbia","postalCode":"56944","url":"http://com.com"},
{"name":"Rau Group","address":"48061 Bowman Lane","city":"Miami","state":"Florida","postalCode":"33142","url":"https://ebay.co.uk"},
{"name":"Emmerich-O'Conner","address":"12380 Park Meadow Drive","city":"Minneapolis","state":"Minnesota","postalCode":"55458","url":"https://jigsy.com"},
{"name":"Murphy, Reilly and Rolfson","address":"73580 Thompson Avenue","city":"Montgomery","state":"Alabama","postalCode":"36125","url":"https://zimbio.com"},
{"name":"Dach, Bosco and Hagenes","address":"811 6th Place","city":"Washington","state":"District of Columbia","postalCode":"20380","url":"https://indiatimes.com"},
{"name":"Howe, Sauer and Gleichner","address":"18 East Park","city":"Fort Lauderdale","state":"Florida","postalCode":"33345","url":"https://wired.com"},
{"name":"Bednar, Waters and Purdy","address":"76695 Arrowood Road","city":"New Orleans","state":"Louisiana","postalCode":"70183","url":"http://wunderground.com"},
{"name":"Gleichner LLC","address":"0041 Golf Course Way","city":"Pittsburgh","state":"Pennsylvania","postalCode":"15250","url":"https://is.gd"},
{"name":"Watsica, Hirthe and Nitzsche","address":"638 Service Street","city":"Indianapolis","state":"Indiana","postalCode":"46221","url":"https://hatena.ne.jp"},
{"name":"Schroeder and Sons","address":"20698 Nelson Center","city":"Largo","state":"Florida","postalCode":"34643","url":"https://linkedin.com"},
{"name":"Bailey-Shanahan","address":"8544 Debs Crossing","city":"Rockford","state":"Illinois","postalCode":"61110","url":"http://tiny.cc"},
{"name":"Bechtelar, Frami and Marquardt","address":"2 John Wall Alley","city":"Tucson","state":"Arizona","postalCode":"85705","url":"https://elegantthemes.com"},
{"name":"Rogahn-Ondricka","address":"25 Alpine Parkway","city":"Athens","state":"Georgia","postalCode":"30610","url":"http://home.pl"},
{"name":"Turcotte Inc","address":"56133 Cardinal Circle","city":"Roanoke","state":"Virginia","postalCode":"24004","url":"https://jigsy.com"},
{"name":"Miller Group","address":"08300 Coleman Street","city":"El Paso","state":"Texas","postalCode":"88525","url":"https://vistaprint.com"},
{"name":"Bashirian-Aufderhar","address":"569 Weeping Birch Trail","city":"Jackson","state":"Mississippi","postalCode":"39216","url":"http://free.fr"},
{"name":"Oberbrunner, Hansen and Thiel","address":"2069 Homewood Junction","city":"Lubbock","state":"Texas","postalCode":"79452","url":"https://homestead.com"},
{"name":"Lesch, Hackett and Powlowski","address":"533 Melby Junction","city":"Concord","state":"California","postalCode":"94522","url":"https://cargocollective.com"},
{"name":"Breitenberg, Friesen and D'Amore","address":"671 Vera Point","city":"Tulsa","state":"Oklahoma","postalCode":"74170","url":"http://dagondesign.com"},
{"name":"Casper, Dickinson and Heller","address":"079 Lunder Crossing","city":"Waco","state":"Texas","postalCode":"76711","url":"http://sogou.com"},
{"name":"O'Kon, Block and Flatley","address":"55 Park Meadow Place","city":"North Little Rock","state":"Arkansas","postalCode":"72118","url":"https://forbes.com"},
{"name":"Wilkinson-Huels","address":"76 Meadow Vale Alley","city":"Huntington","state":"West Virginia","postalCode":"25721","url":"http://redcross.org"},
{"name":"Homenick, Mertz and Lubowitz","address":"0 Magdeline Court","city":"Louisville","state":"Kentucky","postalCode":"40287","url":"http://omniture.com"},
{"name":"Balistreri, Hodkiewicz and Emard","address":"78 Blue Bill Park Park","city":"Des Moines","state":"Iowa","postalCode":"50393","url":"https://bing.com"},
{"name":"Turcotte-Medhurst","address":"416 Corscot Alley","city":"Houston","state":"Texas","postalCode":"77005","url":"http://about.me"},
{"name":"Feest, Streich and Beer","address":"47 Boyd Street","city":"Columbus","state":"Ohio","postalCode":"43220","url":"http://spotify.com"},
{"name":"Nader, Willms and Donnelly","address":"70473 Brickson Park Circle","city":"Austin","state":"Texas","postalCode":"78703","url":"https://hud.gov"},
{"name":"Wuckert LLC","address":"23424 Troy Parkway","city":"Miami","state":"Florida","postalCode":"33134","url":"http://ihg.com"},
{"name":"Quigley-Frami","address":"717 Northview Park","city":"New York City","state":"New York","postalCode":"10004","url":"http://altervista.org"},
{"name":"Dare-Dietrich","address":"90 Green Ridge Pass","city":"Tallahassee","state":"Florida","postalCode":"32399","url":"http://constantcontact.com"},
{"name":"MacGyver, Bode and Ortiz","address":"9624 Reindahl Point","city":"Pompano Beach","state":"Florida","postalCode":"33069","url":"http://oakley.com"},
{"name":"Dibbert-Howell","address":"93 Menomonie Place","city":"San Jose","state":"California","postalCode":"95128","url":"https://google.it"},
{"name":"Fay-Stoltenberg","address":"6468 Aberg Road","city":"El Paso","state":"Texas","postalCode":"79905","url":"https://webeden.co.uk"},
{"name":"McCullough Group","address":"03 Hermina Hill","city":"Gastonia","state":"North Carolina","postalCode":"28055","url":"https://cdbaby.com"},
{"name":"Herman-Lind","address":"75 Magdeline Junction","city":"Lincoln","state":"Nebraska","postalCode":"68510","url":"http://yahoo.com"},
{"name":"White, Crooks and Maggio","address":"9030 High Crossing Parkway","city":"Lansing","state":"Michigan","postalCode":"48930","url":"http://flavors.me"},
{"name":"Schulist-Koelpin","address":"9786 Annamark Center","city":"Port Saint Lucie","state":"Florida","postalCode":"34985","url":"https://indiatimes.com"},
{"name":"Cruickshank, O'Reilly and Erdman","address":"7135 Westport Road","city":"Redwood City","state":"California","postalCode":"94064","url":"http://prweb.com"},
{"name":"Dickens and Sons","address":"973 Karstens Road","city":"Los Angeles","state":"California","postalCode":"90035","url":"http://goo.gl"},
{"name":"Zboncak and Sons","address":"33616 Evergreen Road","city":"Indianapolis","state":"Indiana","postalCode":"46221","url":"http://blinklist.com"},
{"name":"Cummerata-Koch","address":"72 Mifflin Junction","city":"Fort Wayne","state":"Indiana","postalCode":"46867","url":"https://so-net.ne.jp"},
{"name":"Nolan-Mayer","address":"243 Village Pass","city":"Hialeah","state":"Florida","postalCode":"33018","url":"http://histats.com"},
{"name":"Gleason-Paucek","address":"9833 Bay Plaza","city":"San Diego","state":"California","postalCode":"92115","url":"https://creativecommons.org"},
{"name":"Treutel, Streich and Runolfsson","address":"387 American Ash Park","city":"Houston","state":"Texas","postalCode":"77228","url":"https://webnode.com"},
{"name":"Kertzmann-Douglas","address":"9722 Riverside Avenue","city":"Raleigh","state":"North Carolina","postalCode":"27690","url":"https://go.com"},
{"name":"Jerde Inc","address":"539 Gale Parkway","city":"Des Moines","state":"Iowa","postalCode":"50320","url":"http://bbc.co.uk"},
{"name":"Denesik Group","address":"15043 Pankratz Pass","city":"Norfolk","state":"Virginia","postalCode":"23504","url":"http://youtube.com"},
{"name":"Cormier, Olson and Carroll","address":"5 North Center","city":"Canton","state":"Ohio","postalCode":"44720","url":"http://typepad.com"},
{"name":"Hessel, Gerhold and Koss","address":"13998 Lotheville Alley","city":"North Hollywood","state":"California","postalCode":"91616","url":"https://home.pl"},
{"name":"Dickens, Wolf and Bins","address":"5 5th Hill","city":"Sioux Falls","state":"South Dakota","postalCode":"57105","url":"http://statcounter.com"},
{"name":"Yundt LLC","address":"172 Michigan Hill","city":"Orlando","state":"Florida","postalCode":"32825","url":"https://hibu.com"},
{"name":"Torp and Sons","address":"436 New Castle Street","city":"Decatur","state":"Illinois","postalCode":"62525","url":"http://deliciousdays.com"},
{"name":"Hamill, Cremin and MacGyver","address":"00 Hauk Road","city":"Greensboro","state":"North Carolina","postalCode":"27404","url":"https://walmart.com"},
{"name":"Murphy-Quigley","address":"6076 Talmadge Road","city":"Warren","state":"Ohio","postalCode":"44485","url":"https://google.pl"},
{"name":"Kulas Inc","address":"683 Mayer Alley","city":"Fort Lauderdale","state":"Florida","postalCode":"33345","url":"http://youku.com"},
{"name":"Bergnaum-Schamberger","address":"28937 Annamark Road","city":"El Paso","state":"Texas","postalCode":"79945","url":"http://google.pl"},
{"name":"Kuphal and Sons","address":"2 Green Ridge Junction","city":"Frankfort","state":"Kentucky","postalCode":"40618","url":"https://prnewswire.com"},
{"name":"Gusikowski, Bruen and Lang","address":"8 Mayer Park","city":"Las Cruces","state":"New Mexico","postalCode":"88006","url":"http://seattletimes.com"},
{"name":"Barton, Carroll and Bogisich","address":"388 Sutteridge Avenue","city":"Irving","state":"Texas","postalCode":"75062","url":"https://behance.net"},
{"name":"Wehner-Spencer","address":"94 Doe Crossing Terrace","city":"Detroit","state":"Michigan","postalCode":"48224","url":"http://csmonitor.com"},
{"name":"Green-Harris","address":"9 Monument Drive","city":"Dallas","state":"Texas","postalCode":"75246","url":"http://jugem.jp"},
{"name":"Rempel-Bradtke","address":"918 Forest Run Hill","city":"Charleston","state":"West Virginia","postalCode":"25336","url":"http://newsvine.com"},
{"name":"Emmerich-Homenick","address":"470 Ilene Parkway","city":"Florence","state":"South Carolina","postalCode":"29505","url":"http://washingtonpost.com"},
{"name":"Howell-Kunde","address":"7940 Lunder Street","city":"Tucson","state":"Arizona","postalCode":"85725","url":"https://liveinternet.ru"},
{"name":"Weimann-Hilll","address":"11 Bellgrove Lane","city":"Shawnee Mission","state":"Kansas","postalCode":"66205","url":"http://reuters.com"},
{"name":"Jacobs-DuBuque","address":"22 Kim Park","city":"Cedar Rapids","state":"Iowa","postalCode":"52405","url":"http://jalbum.net"},
{"name":"Dare-Hessel","address":"5 Little Fleur Court","city":"Pittsburgh","state":"Pennsylvania","postalCode":"15261","url":"http://ibm.com"},
{"name":"Goyette, Bosco and Wunsch","address":"062 Merrick Hill","city":"Fort Lauderdale","state":"Florida","postalCode":"33325","url":"https://fastcompany.com"},
{"name":"Berge, Crona and Vandervort","address":"9036 Hanson Court","city":"Pittsburgh","state":"Pennsylvania","postalCode":"15220","url":"https://ask.com"},
{"name":"Gottlieb LLC","address":"7268 Oakridge Drive","city":"San Bernardino","state":"California","postalCode":"92415","url":"https://epa.gov"},
{"name":"Jacobson, Kilback and Block","address":"0985 Crest Line Pass","city":"Boston","state":"Massachusetts","postalCode":"02216","url":"http://weebly.com"},
{"name":"Ebert-Fahey","address":"8 Carioca Street","city":"Springfield","state":"Illinois","postalCode":"62776","url":"https://comsenz.com"},
{"name":"Pollich Inc","address":"22 Colorado Trail","city":"Saginaw","state":"Michigan","postalCode":"48604","url":"http://google.es"},
{"name":"Ryan-Rempel","address":"96238 Union Lane","city":"Baltimore","state":"Maryland","postalCode":"21216","url":"https://state.gov"},
{"name":"Marks-Goyette","address":"1160 Northridge Circle","city":"Lafayette","state":"Louisiana","postalCode":"70593","url":"https://163.com"},
{"name":"Sanford, Stroman and Kertzmann","address":"558 New Castle Alley","city":"Anchorage","state":"Alaska","postalCode":"99522","url":"https://uiuc.edu"},
{"name":"Gerhold Group","address":"22589 Declaration Park","city":"Roanoke","state":"Virginia","postalCode":"24024","url":"http://ihg.com"},
{"name":"Grant-Romaguera","address":"0 Buena Vista Circle","city":"Albany","state":"New York","postalCode":"12222","url":"http://princeton.edu"},
{"name":"Stanton-Christiansen","address":"6 Rockefeller Circle","city":"Tulsa","state":"Oklahoma","postalCode":"74126","url":"https://hp.com"},
{"name":"Barrows-Nader","address":"89953 Waubesa Terrace","city":"Oklahoma City","state":"Oklahoma","postalCode":"73109","url":"http://artisteer.com"},
{"name":"Boehm LLC","address":"30 Mcbride Lane","city":"Las Vegas","state":"Nevada","postalCode":"89166","url":"http://jalbum.net"},
{"name":"Mohr, Gorczany and Barrows","address":"040 Pleasure Terrace","city":"Boulder","state":"Colorado","postalCode":"80305","url":"https://twitter.com"},
{"name":"Ziemann and Sons","address":"181 Browning Lane","city":"Visalia","state":"California","postalCode":"93291","url":"http://ca.gov"},
{"name":"Bayer, Wiza and Corwin","address":"506 Homewood Crossing","city":"Chattanooga","state":"Tennessee","postalCode":"37410","url":"https://sbwire.com"},
{"name":"Wolff, Bins and Russel","address":"663 Ronald Regan Point","city":"Pensacola","state":"Florida","postalCode":"32526","url":"https://oakley.com"},
{"name":"Torphy, Smitham and Prohaska","address":"7 Hoepker Pass","city":"Odessa","state":"Texas","postalCode":"79769","url":"https://biglobe.ne.jp"},
{"name":"Wisozk Inc","address":"5439 Derek Point","city":"Cincinnati","state":"Ohio","postalCode":"45223","url":"https://ustream.tv"},
{"name":"Stroman, Harvey and Buckridge","address":"5 Grasskamp Circle","city":"Seattle","state":"Washington","postalCode":"98109","url":"https://spiegel.de"},
{"name":"Stark-Kulas","address":"82266 Doe Crossing Lane","city":"Los Angeles","state":"California","postalCode":"90045","url":"http://icq.com"},
{"name":"Armstrong, Metz and Kuhn","address":"56 Holmberg Terrace","city":"Visalia","state":"California","postalCode":"93291","url":"http://weebly.com"},
{"name":"Smitham-Goldner","address":"6114 Luster Pass","city":"Pittsburgh","state":"Pennsylvania","postalCode":"15255","url":"https://arstechnica.com"},
{"name":"Runolfsdottir, Macejkovic and Witting","address":"6 Oak Hill","city":"Lawrenceville","state":"Georgia","postalCode":"30245","url":"https://indiegogo.com"},
{"name":"Bergnaum and Sons","address":"32 Anzinger Trail","city":"Ocala","state":"Florida","postalCode":"34479","url":"https://netlog.com"},
{"name":"Daniel-Tillman","address":"43 Eliot Alley","city":"San Mateo","state":"California","postalCode":"94405","url":"https://opensource.org"},
{"name":"Hintz and Sons","address":"74 Southridge Road","city":"Cincinnati","state":"Ohio","postalCode":"45208","url":"https://ucsd.edu"},
{"name":"McLaughlin LLC","address":"746 Brickson Park Plaza","city":"Miami","state":"Florida","postalCode":"33180","url":"http://indiatimes.com"},
{"name":"Wilkinson, Jenkins and Herman","address":"82 Helena Pass","city":"Phoenix","state":"Arizona","postalCode":"85077","url":"http://google.co.jp"},
{"name":"Durgan, Heaney and Brekke","address":"06 Sherman Park","city":"Charlotte","state":"North Carolina","postalCode":"28210","url":"https://google.nl"},
{"name":"Lesch-Dicki","address":"57 Rockefeller Terrace","city":"Daytona Beach","state":"Florida","postalCode":"32128","url":"https://epa.gov"},
{"name":"Runolfsdottir and Sons","address":"712 Granby Lane","city":"Brooklyn","state":"New York","postalCode":"11220","url":"https://woothemes.com"},
{"name":"Rice-Williamson","address":"68415 Pierstorff Crossing","city":"Atlanta","state":"Georgia","postalCode":"30316","url":"https://mapquest.com"},
{"name":"McLaughlin, O'Kon and Towne","address":"246 Harbort Alley","city":"Spring","state":"Texas","postalCode":"77386","url":"https://free.fr"},
{"name":"Runolfsdottir-Kihn","address":"00 Mesta Crossing","city":"Atlanta","state":"Georgia","postalCode":"30301","url":"https://sun.com"},
{"name":"Tillman-Kshlerin","address":"8 Lyons Lane","city":"Philadelphia","state":"Pennsylvania","postalCode":"19115","url":"https://com.com"},
{"name":"Legros, Littel and Funk","address":"2767 Westend Trail","city":"Sacramento","state":"California","postalCode":"95894","url":"https://nyu.edu"},
{"name":"Keeling-Johns","address":"05 Brickson Park Lane","city":"Oklahoma City","state":"Oklahoma","postalCode":"73167","url":"https://yellowbook.com"},
{"name":"Christiansen, Rosenbaum and Fahey","address":"4 Merry Point","city":"Loretto","state":"Minnesota","postalCode":"55598","url":"http://who.int"},
{"name":"Roberts-Russel","address":"3764 Bartillon Plaza","city":"Charleston","state":"West Virginia","postalCode":"25326","url":"https://toplist.cz"},
{"name":"Macejkovic, Streich and Dooley","address":"910 Debs Parkway","city":"Salt Lake City","state":"Utah","postalCode":"84125","url":"https://hostgator.com"},
{"name":"Konopelski LLC","address":"272 Chive Street","city":"Fresno","state":"California","postalCode":"93794","url":"http://harvard.edu"},
{"name":"Carter LLC","address":"4 Trailsway Trail","city":"Corpus Christi","state":"Texas","postalCode":"78415","url":"https://is.gd"},
{"name":"Leannon, Herzog and Johnston","address":"2054 Fremont Junction","city":"Los Angeles","state":"California","postalCode":"90050","url":"http://drupal.org"},
{"name":"Schoen Group","address":"50206 Pankratz Street","city":"Bethesda","state":"Maryland","postalCode":"20892","url":"http://posterous.com"},
{"name":"Mueller Group","address":"575 Kennedy Pass","city":"Kansas City","state":"Missouri","postalCode":"64160","url":"https://oakley.com"},
{"name":"Stiedemann-Watsica","address":"4969 Rockefeller Hill","city":"Orlando","state":"Florida","postalCode":"32885","url":"http://yelp.com"},
{"name":"Batz Group","address":"8831 Independence Hill","city":"Shawnee Mission","state":"Kansas","postalCode":"66205","url":"https://shop-pro.jp"},
{"name":"Buckridge-Auer","address":"787 Esch Trail","city":"Honolulu","state":"Hawaii","postalCode":"96815","url":"https://walmart.com"},
{"name":"Hansen-Brakus","address":"19 Hallows Park","city":"Mobile","state":"Alabama","postalCode":"36689","url":"http://spiegel.de"},
{"name":"Will, Osinski and Zboncak","address":"8 Kennedy Junction","city":"Wilmington","state":"North Carolina","postalCode":"28410","url":"http://rakuten.co.jp"},
{"name":"Daugherty Inc","address":"269 3rd Junction","city":"Moreno Valley","state":"California","postalCode":"92555","url":"http://adobe.com"},
{"name":"Hilll Group","address":"41647 Holmberg Lane","city":"Boston","state":"Massachusetts","postalCode":"02298","url":"http://mediafire.com"},
{"name":"Oberbrunner, Parisian and Kihn","address":"7467 Sunfield Point","city":"Sacramento","state":"California","postalCode":"94207","url":"https://seesaa.net"},
{"name":"Leannon-Hamill","address":"02 Scott Way","city":"Florence","state":"South Carolina","postalCode":"29505","url":"https://bbc.co.uk"},
{"name":"Koepp LLC","address":"91 Hoard Plaza","city":"Charleston","state":"West Virginia","postalCode":"25362","url":"https://auda.org.au"},
{"name":"Brakus, Kemmer and Brekke","address":"8 Farwell Alley","city":"Fresno","state":"California","postalCode":"93794","url":"https://ning.com"},
{"name":"Wisozk, Crist and Buckridge","address":"8 John Wall Crossing","city":"Louisville","state":"Kentucky","postalCode":"40215","url":"http://weather.com"},
{"name":"Bradtke LLC","address":"77 Columbus Plaza","city":"San Diego","state":"California","postalCode":"92127","url":"http://imdb.com"},
{"name":"Graham, Casper and Mayert","address":"5 Holy Cross Terrace","city":"Fort Pierce","state":"Florida","postalCode":"34949","url":"https://sourceforge.net"},
{"name":"Dicki and Sons","address":"82 Muir Court","city":"Atlanta","state":"Georgia","postalCode":"31190","url":"https://intel.com"},
{"name":"Greenholt-Okuneva","address":"3110 Mayfield Point","city":"Riverside","state":"California","postalCode":"92505","url":"http://huffingtonpost.com"},
{"name":"Considine, Mraz and Bruen","address":"450 Oriole Lane","city":"Santa Cruz","state":"California","postalCode":"95064","url":"https://dyndns.org"},
{"name":"Paucek-Fay","address":"3 Continental Junction","city":"Memphis","state":"Tennessee","postalCode":"38161","url":"http://ca.gov"},
{"name":"Becker Inc","address":"12 Grim Court","city":"Vero Beach","state":"Florida","postalCode":"32964","url":"https://feedburner.com"},
{"name":"Hackett-Welch","address":"99 Prentice Point","city":"San Antonio","state":"Texas","postalCode":"78235","url":"https://taobao.com"},
{"name":"Sanford Inc","address":"348 Daystar Terrace","city":"Jacksonville","state":"Florida","postalCode":"32204","url":"http://usa.gov"},
{"name":"Stoltenberg Inc","address":"5594 Bayside Parkway","city":"Philadelphia","state":"Pennsylvania","postalCode":"19125","url":"http://rakuten.co.jp"},
{"name":"Lockman, Fisher and Steuber","address":"51 Petterle Circle","city":"Newark","state":"Delaware","postalCode":"19714","url":"https://about.me"},
{"name":"Lehner, Wilderman and Sanford","address":"18174 Armistice Drive","city":"Brooklyn","state":"New York","postalCode":"11205","url":"https://oracle.com"},
{"name":"Haley and Sons","address":"4462 Oak Valley Court","city":"Minneapolis","state":"Minnesota","postalCode":"55441","url":"http://t-online.de"},
{"name":"Kuhlman-Davis","address":"629 Dawn Trail","city":"Shreveport","state":"Louisiana","postalCode":"71105","url":"https://dailymotion.com"},
{"name":"Koch Group","address":"0 Cottonwood Junction","city":"Evansville","state":"Indiana","postalCode":"47712","url":"http://ustream.tv"},
{"name":"Hodkiewicz LLC","address":"2035 Washington Road","city":"Charlotte","state":"North Carolina","postalCode":"28299","url":"https://prweb.com"},
{"name":"Kassulke LLC","address":"5816 Acker Trail","city":"Houston","state":"Texas","postalCode":"77005","url":"http://gravatar.com"},
{"name":"Weissnat, Fadel and Dibbert","address":"67398 Golf Course Circle","city":"Chico","state":"California","postalCode":"95973","url":"https://oracle.com"},
{"name":"Moore Group","address":"0 Becker Circle","city":"Montgomery","state":"Alabama","postalCode":"36119","url":"http://aboutads.info"},
{"name":"Graham-Zboncak","address":"78520 Kinsman Plaza","city":"Hartford","state":"Connecticut","postalCode":"06145","url":"https://booking.com"},
{"name":"Kautzer and Sons","address":"39 Michigan Court","city":"Washington","state":"District of Columbia","postalCode":"20005","url":"https://histats.com"},
{"name":"Boyer-Witting","address":"13912 Sachs Pass","city":"Columbus","state":"Georgia","postalCode":"31998","url":"https://1688.com"},
{"name":"Dickens-Satterfield","address":"636 Corry Road","city":"Jefferson City","state":"Missouri","postalCode":"65110","url":"https://ustream.tv"},
{"name":"Grady-Johnson","address":"7 Doe Crossing Plaza","city":"Dallas","state":"Texas","postalCode":"75310","url":"http://woothemes.com"},
{"name":"Thompson-O'Reilly","address":"1405 Carey Crossing","city":"Shreveport","state":"Louisiana","postalCode":"71137","url":"https://yolasite.com"},
{"name":"Hirthe-Boyle","address":"1 Thompson Crossing","city":"Seattle","state":"Washington","postalCode":"98121","url":"http://a8.net"},
{"name":"Hartmann-Cronin","address":"55 Morrow Terrace","city":"Nashville","state":"Tennessee","postalCode":"37215","url":"https://nih.gov"},
{"name":"Padberg-Rath","address":"72 Meadow Vale Junction","city":"New York City","state":"New York","postalCode":"10024","url":"https://businessweek.com"},
{"name":"Feest Group","address":"19 Cottonwood Center","city":"Washington","state":"District of Columbia","postalCode":"20041","url":"http://pbs.org"},
{"name":"Collier, Kling and Von","address":"44172 Drewry Place","city":"Asheville","state":"North Carolina","postalCode":"28805","url":"http://sciencedirect.com"},
{"name":"Gulgowski Inc","address":"296 Del Mar Lane","city":"Atlanta","state":"Georgia","postalCode":"31106","url":"https://fda.gov"},
{"name":"McCullough-Heathcote","address":"483 Dakota Plaza","city":"Dallas","state":"Texas","postalCode":"75397","url":"https://51.la"},
{"name":"Conroy, Mohr and Walker","address":"01387 Birchwood Place","city":"Oakland","state":"California","postalCode":"94616","url":"http://newsvine.com"},
{"name":"Carter-Ernser","address":"72972 Elgar Pass","city":"Tampa","state":"Florida","postalCode":"33673","url":"https://photobucket.com"},
{"name":"Kohler and Sons","address":"98523 Erie Drive","city":"Trenton","state":"New Jersey","postalCode":"08638","url":"https://oaic.gov.au"},
{"name":"DuBuque-Mills","address":"00416 Union Terrace","city":"Melbourne","state":"Florida","postalCode":"32919","url":"http://archive.org"},
{"name":"Conn-Yost","address":"7263 Drewry Circle","city":"Sacramento","state":"California","postalCode":"94291","url":"https://amazon.co.uk"},
{"name":"Weber, Bauch and Quigley","address":"42 Jenna Avenue","city":"Columbus","state":"Ohio","postalCode":"43240","url":"https://constantcontact.com"},
{"name":"Lindgren-Rempel","address":"98 Crowley Center","city":"Naples","state":"Florida","postalCode":"33963","url":"http://sphinn.com"},
{"name":"Jast-Mosciski","address":"858 Washington Hill","city":"Duluth","state":"Minnesota","postalCode":"55805","url":"https://shareasale.com"},
{"name":"Lehner-Bashirian","address":"022 Thierer Hill","city":"New York City","state":"New York","postalCode":"10270","url":"https://msu.edu"},
{"name":"Reichel, Labadie and Kihn","address":"87 Nova Parkway","city":"Wichita","state":"Kansas","postalCode":"67260","url":"https://patch.com"},
{"name":"McLaughlin-Fisher","address":"6 Katie Court","city":"Marietta","state":"Georgia","postalCode":"30066","url":"https://google.fr"},
{"name":"Hoppe, Douglas and Marvin","address":"2 2nd Place","city":"Washington","state":"District of Columbia","postalCode":"20099","url":"https://goo.gl"},
{"name":"Feil LLC","address":"0065 Mariners Cove Street","city":"Orlando","state":"Florida","postalCode":"32825","url":"https://msu.edu"},
{"name":"Simonis Inc","address":"9 Maryland Park","city":"Roanoke","state":"Virginia","postalCode":"24048","url":"http://uiuc.edu"},
{"name":"Prosacco-Towne","address":"62 Northland Hill","city":"Syracuse","state":"New York","postalCode":"13210","url":"https://furl.net"},
{"name":"Turner and Sons","address":"1498 Fuller Way","city":"Sacramento","state":"California","postalCode":"95833","url":"https://reddit.com"},
{"name":"Huels-Lakin","address":"249 Sage Hill","city":"Pittsburgh","state":"Pennsylvania","postalCode":"15220","url":"http://nba.com"},
{"name":"Hahn, Powlowski and Sanford","address":"939 Debra Parkway","city":"Dayton","state":"Ohio","postalCode":"45490","url":"http://xinhuanet.com"},
{"name":"Yost, Braun and Runolfsson","address":"33 Commercial Trail","city":"Pomona","state":"California","postalCode":"91797","url":"https://moonfruit.com"},
{"name":"Bruen-Stehr","address":"278 Sheridan Lane","city":"Lansing","state":"Michigan","postalCode":"48919","url":"https://typepad.com"},
{"name":"Spinka Inc","address":"4 Almo Center","city":"New Orleans","state":"Louisiana","postalCode":"70129","url":"http://kickstarter.com"},
{"name":"Schumm and Sons","address":"3 Luster Avenue","city":"North Hollywood","state":"California","postalCode":"91606","url":"https://bizjournals.com"},
{"name":"Gleichner Inc","address":"560 Wayridge Hill","city":"Buffalo","state":"New York","postalCode":"14210","url":"https://nbcnews.com"},
{"name":"Hahn and Sons","address":"77 Corscot Place","city":"Chicago","state":"Illinois","postalCode":"60663","url":"http://umn.edu"},
{"name":"Hauck-Krajcik","address":"14 Golf Course Street","city":"Dallas","state":"Texas","postalCode":"75210","url":"https://friendfeed.com"},
{"name":"Kuhn-Jenkins","address":"51194 Ridgeview Alley","city":"Birmingham","state":"Alabama","postalCode":"35263","url":"http://psu.edu"},
{"name":"Zemlak LLC","address":"6689 Lunder Park","city":"Allentown","state":"Pennsylvania","postalCode":"18105","url":"https://tinyurl.com"},
{"name":"Little LLC","address":"5 Sloan Plaza","city":"Bronx","state":"New York","postalCode":"10469","url":"https://wired.com"},
{"name":"Morissette Group","address":"420 Sheridan Circle","city":"Atlanta","state":"Georgia","postalCode":"30358","url":"https://tamu.edu"},
{"name":"Becker LLC","address":"6585 Sugar Place","city":"Spring Hill","state":"Florida","postalCode":"34611","url":"http://forbes.com"},
{"name":"Kunde-Frami","address":"4914 Dixon Drive","city":"Tampa","state":"Florida","postalCode":"33686","url":"https://fc2.com"},
{"name":"Volkman Group","address":"993 Burrows Street","city":"Ann Arbor","state":"Michigan","postalCode":"48107","url":"http://soundcloud.com"},
{"name":"Cartwright, Hagenes and Halvorson","address":"23 Tennessee Avenue","city":"Indianapolis","state":"Indiana","postalCode":"46278","url":"http://moonfruit.com"},
{"name":"Turcotte Inc","address":"87865 Dunning Street","city":"Albany","state":"New York","postalCode":"12242","url":"http://disqus.com"},
{"name":"Bruen-Carter","address":"6710 Crest Line Center","city":"Brooklyn","state":"New York","postalCode":"11210","url":"http://purevolume.com"},
{"name":"Herman and Sons","address":"036 Dunning Drive","city":"Cleveland","state":"Ohio","postalCode":"44197","url":"https://merriam-webster.com"},
{"name":"Schumm-Beahan","address":"550 Schmedeman Circle","city":"Washington","state":"District of Columbia","postalCode":"20210","url":"https://fastcompany.com"},
{"name":"Donnelly Group","address":"92 Sherman Point","city":"Des Moines","state":"Iowa","postalCode":"50369","url":"http://seesaa.net"},
{"name":"Larson LLC","address":"1 Helena Plaza","city":"Miami","state":"Florida","postalCode":"33129","url":"http://xrea.com"},
{"name":"Kuhic and Sons","address":"34 Havey Parkway","city":"Metairie","state":"Louisiana","postalCode":"70033","url":"https://salon.com"},
{"name":"Collins Group","address":"9 Comanche Hill","city":"Vancouver","state":"Washington","postalCode":"98682","url":"https://vk.com"},
{"name":"White LLC","address":"79275 Katie Crossing","city":"Scranton","state":"Pennsylvania","postalCode":"18505","url":"https://cam.ac.uk"},
{"name":"Fritsch Group","address":"6 Badeau Parkway","city":"Denver","state":"Colorado","postalCode":"80217","url":"http://hhs.gov"},
{"name":"Friesen, Ankunding and Reichert","address":"94 Hoard Junction","city":"Atlanta","state":"Georgia","postalCode":"30380","url":"https://ocn.ne.jp"},
{"name":"Quigley and Sons","address":"38 Alpine Terrace","city":"Savannah","state":"Georgia","postalCode":"31416","url":"https://jimdo.com"},
{"name":"Pacocha Inc","address":"650 Hazelcrest Junction","city":"Omaha","state":"Nebraska","postalCode":"68117","url":"http://weebly.com"},
{"name":"Lesch Group","address":"9854 Fuller Center","city":"San Jose","state":"California","postalCode":"95113","url":"http://nsw.gov.au"},
{"name":"Schinner, Dicki and Stanton","address":"03856 Declaration Pass","city":"Milwaukee","state":"Wisconsin","postalCode":"53220","url":"http://devhub.com"},
{"name":"Howell-Hodkiewicz","address":"17612 Northview Parkway","city":"Washington","state":"District of Columbia","postalCode":"20525","url":"https://nih.gov"},
{"name":"Bahringer and Sons","address":"6 Merry Trail","city":"Buffalo","state":"New York","postalCode":"14276","url":"https://bluehost.com"},
{"name":"Howe-Rippin","address":"7873 Utah Crossing","city":"Charleston","state":"West Virginia","postalCode":"25336","url":"https://google.com.hk"},
{"name":"Hayes-Schoen","address":"31 Raven Place","city":"Los Angeles","state":"California","postalCode":"90035","url":"https://furl.net"},
{"name":"Rodriguez LLC","address":"149 Mesta Circle","city":"Fort Worth","state":"Texas","postalCode":"76129","url":"http://w3.org"},
{"name":"Hayes LLC","address":"5301 Del Sol Way","city":"Fort Myers","state":"Florida","postalCode":"33994","url":"http://netscape.com"},
{"name":"Purdy-Treutel","address":"250 Elka Trail","city":"Jeffersonville","state":"Indiana","postalCode":"47134","url":"https://dailymail.co.uk"},
{"name":"Stamm-Glover","address":"7 Messerschmidt Way","city":"Atlanta","state":"Georgia","postalCode":"30358","url":"https://gov.uk"},
{"name":"Williamson-Zieme","address":"92429 Oak Road","city":"Temple","state":"Texas","postalCode":"76505","url":"http://hubpages.com"},
{"name":"Pollich-Moen","address":"68046 Tennessee Terrace","city":"Decatur","state":"Georgia","postalCode":"30089","url":"http://theatlantic.com"},
{"name":"Tillman-Ondricka","address":"2912 Forest Run Park","city":"Sacramento","state":"California","postalCode":"95833","url":"http://cdc.gov"},
{"name":"Kunde LLC","address":"02 Declaration Alley","city":"Shawnee Mission","state":"Kansas","postalCode":"66205","url":"https://instagram.com"},
{"name":"Macejkovic LLC","address":"785 Lindbergh Street","city":"Philadelphia","state":"Pennsylvania","postalCode":"19120","url":"http://mlb.com"},
{"name":"Schuppe, Zulauf and Parker","address":"5 Mcbride Center","city":"Cincinnati","state":"Ohio","postalCode":"45223","url":"https://msn.com"},
{"name":"Kuhn, Farrell and Wunsch","address":"7 Summer Ridge Circle","city":"Dulles","state":"Virginia","postalCode":"20189","url":"https://t.co"},
{"name":"Nitzsche Inc","address":"199 Sheridan Circle","city":"Bronx","state":"New York","postalCode":"10474","url":"http://slideshare.net"},
{"name":"Berge-Strosin","address":"74 Glendale Alley","city":"Norfolk","state":"Virginia","postalCode":"23514","url":"https://a8.net"},
{"name":"Rosenbaum and Sons","address":"27 Packers Alley","city":"Alpharetta","state":"Georgia","postalCode":"30022","url":"http://devhub.com"},
{"name":"Zboncak Inc","address":"03697 Kedzie Drive","city":"Kansas City","state":"Missouri","postalCode":"64109","url":"http://mac.com"},
{"name":"Hodkiewicz, Hirthe and Dach","address":"1255 Veith Trail","city":"New York City","state":"New York","postalCode":"10270","url":"http://yellowpages.com"},
{"name":"Wisozk, White and Shields","address":"4 Clyde Gallagher Point","city":"Springfield","state":"Illinois","postalCode":"62711","url":"http://senate.gov"},
{"name":"Wolf, Nicolas and Runte","address":"90584 Northfield Point","city":"Reno","state":"Nevada","postalCode":"89595","url":"https://purevolume.com"},
{"name":"Renner Group","address":"87 Sutteridge Place","city":"Riverside","state":"California","postalCode":"92505","url":"http://foxnews.com"},
{"name":"Senger-Weimann","address":"02204 Shopko Road","city":"Los Angeles","state":"California","postalCode":"90030","url":"https://state.gov"},
{"name":"Dietrich, Stehr and Wintheiser","address":"30 Bunker Hill Terrace","city":"Saint Joseph","state":"Missouri","postalCode":"64504","url":"http://microsoft.com"},
{"name":"Walsh-Monahan","address":"1572 Golden Leaf Center","city":"Wilmington","state":"North Carolina","postalCode":"28405","url":"http://theatlantic.com"},
{"name":"O'Conner, Morissette and Balistreri","address":"21 Division Avenue","city":"New Haven","state":"Connecticut","postalCode":"06505","url":"https://studiopress.com"},
{"name":"Denesik and Sons","address":"4 Monterey Trail","city":"Phoenix","state":"Arizona","postalCode":"85010","url":"https://desdev.cn"},
{"name":"Stamm Inc","address":"22 Summit Parkway","city":"New Hyde Park","state":"New York","postalCode":"11044","url":"http://51.la"},
{"name":"Feeney-Murray","address":"09 Orin Drive","city":"Indianapolis","state":"Indiana","postalCode":"46247","url":"http://elpais.com"},
{"name":"Waelchi-Ritchie","address":"3 Westport Terrace","city":"Columbus","state":"Ohio","postalCode":"43226","url":"https://boston.com"},
{"name":"Auer Group","address":"0 Stephen Drive","city":"San Jose","state":"California","postalCode":"95194","url":"http://nyu.edu"},
{"name":"King-Dickinson","address":"51 Bowman Trail","city":"Clearwater","state":"Florida","postalCode":"34620","url":"https://washingtonpost.com"},
{"name":"Cremin and Sons","address":"80 Dorton Pass","city":"Brooklyn","state":"New York","postalCode":"11210","url":"http://mashable.com"},
{"name":"Torp-Konopelski","address":"49196 Hintze Junction","city":"Washington","state":"District of Columbia","postalCode":"20414","url":"https://diigo.com"},
{"name":"Ritchie, Sanford and Quigley","address":"4659 Portage Plaza","city":"Monticello","state":"Minnesota","postalCode":"55565","url":"http://liveinternet.ru"},
{"name":"Emard-Kuphal","address":"127 Oriole Circle","city":"New Hyde Park","state":"New York","postalCode":"11044","url":"http://alibaba.com"},
{"name":"Heaney Inc","address":"359 7th Avenue","city":"Gainesville","state":"Florida","postalCode":"32605","url":"http://netvibes.com"},
{"name":"Johnson and Sons","address":"0329 Victoria Drive","city":"Portland","state":"Oregon","postalCode":"97201","url":"https://abc.net.au"},
{"name":"Christiansen LLC","address":"32 Oak Valley Street","city":"Orlando","state":"Florida","postalCode":"32868","url":"http://msn.com"},
{"name":"Fay, Boyer and Cole","address":"53 Eliot Lane","city":"Meridian","state":"Mississippi","postalCode":"39305","url":"http://ucoz.ru"},
{"name":"Legros and Sons","address":"1 Pearson Alley","city":"Washington","state":"District of Columbia","postalCode":"20414","url":"https://netscape.com"},
{"name":"Swift-Hilll","address":"440 Westport Trail","city":"Augusta","state":"Georgia","postalCode":"30911","url":"http://acquirethisname.com"},
{"name":"Kilback LLC","address":"62171 Independence Parkway","city":"Nashville","state":"Tennessee","postalCode":"37250","url":"http://networkadvertising.org"},
{"name":"Doyle, Maggio and Huel","address":"241 Bartelt Parkway","city":"Dulles","state":"Virginia","postalCode":"20189","url":"http://dot.gov"},
{"name":"Lebsack, Rosenbaum and Koch","address":"2306 Sachs Alley","city":"Louisville","state":"Kentucky","postalCode":"40205","url":"http://youtu.be"},
{"name":"Paucek Inc","address":"87 Blackbird Hill","city":"Oklahoma City","state":"Oklahoma","postalCode":"73167","url":"http://amazon.co.jp"},
{"name":"Wiegand, Stracke and Schuppe","address":"62 Bobwhite Circle","city":"Amarillo","state":"Texas","postalCode":"79116","url":"http://wp.com"},
{"name":"Kozey-Bernier","address":"45170 Sugar Lane","city":"Pasadena","state":"California","postalCode":"91109","url":"https://blog.com"},
{"name":"Medhurst-Spinka","address":"58 Jay Junction","city":"Hattiesburg","state":"Mississippi","postalCode":"39404","url":"http://nhs.uk"},
{"name":"Goyette and Sons","address":"99 Kingsford Junction","city":"Phoenix","state":"Arizona","postalCode":"85010","url":"http://bravesites.com"},
{"name":"Murazik, Purdy and McLaughlin","address":"1 Kensington Street","city":"Bridgeport","state":"Connecticut","postalCode":"06673","url":"http://columbia.edu"},
{"name":"Schaefer-O'Kon","address":"5976 Grayhawk Crossing","city":"Vero Beach","state":"Florida","postalCode":"32964","url":"https://soup.io"},
{"name":"Bergnaum LLC","address":"8 Schiller Place","city":"Denver","state":"Colorado","postalCode":"80209","url":"http://w3.org"},
{"name":"Johnston-Mayer","address":"14303 Bellgrove Circle","city":"Wilmington","state":"Delaware","postalCode":"19805","url":"https://pen.io"},
{"name":"Wisozk Group","address":"9 Prairie Rose Trail","city":"Corpus Christi","state":"Texas","postalCode":"78426","url":"https://blogtalkradio.com"},
{"name":"Kihn-Green","address":"596 Summerview Park","city":"Stamford","state":"Connecticut","postalCode":"06912","url":"https://arstechnica.com"},
{"name":"Greenfelder and Sons","address":"43240 Columbus Parkway","city":"New Haven","state":"Connecticut","postalCode":"06538","url":"https://exblog.jp"},
{"name":"Kirlin-Abernathy","address":"342 Starling Junction","city":"Metairie","state":"Louisiana","postalCode":"70005","url":"http://google.com.au"},
{"name":"Bartell, Stracke and Braun","address":"83 Bluejay Parkway","city":"Chicago","state":"Illinois","postalCode":"60652","url":"http://biblegateway.com"},
{"name":"Prohaska Group","address":"0011 Northport Plaza","city":"New Haven","state":"Connecticut","postalCode":"06533","url":"https://bluehost.com"},
{"name":"Cormier-Hilpert","address":"31 Lillian Circle","city":"Anderson","state":"Indiana","postalCode":"46015","url":"https://bigcartel.com"},
{"name":"Spencer-Towne","address":"02186 Namekagon Crossing","city":"Waltham","state":"Massachusetts","postalCode":"02453","url":"https://odnoklassniki.ru"},
{"name":"Bradtke-Hermann","address":"55 Derek Hill","city":"Frederick","state":"Maryland","postalCode":"21705","url":"https://economist.com"},
{"name":"Anderson and Sons","address":"85155 Rieder Alley","city":"Lexington","state":"Kentucky","postalCode":"40596","url":"http://cargocollective.com"},
{"name":"McClure-Kozey","address":"84 Algoma Hill","city":"Washington","state":"District of Columbia","postalCode":"20041","url":"https://drupal.org"},
{"name":"Swift-Mosciski","address":"9073 Westport Center","city":"Chicago","state":"Illinois","postalCode":"60681","url":"http://dion.ne.jp"},
{"name":"Johns, Johns and Hickle","address":"57 New Castle Parkway","city":"Duluth","state":"Minnesota","postalCode":"55805","url":"https://wordpress.org"},
{"name":"Watsica-Nikolaus","address":"26951 Towne Crossing","city":"Pensacola","state":"Florida","postalCode":"32505","url":"https://yahoo.co.jp"},
{"name":"Turner and Sons","address":"31670 Cherokee Trail","city":"Chula Vista","state":"California","postalCode":"91913","url":"https://ameblo.jp"},
{"name":"Romaguera and Sons","address":"038 Montana Crossing","city":"Asheville","state":"North Carolina","postalCode":"28805","url":"https://census.gov"},
{"name":"Kshlerin LLC","address":"39354 Vahlen Plaza","city":"Racine","state":"Wisconsin","postalCode":"53405","url":"https://netvibes.com"},
{"name":"Connelly LLC","address":"390 Havey Avenue","city":"Fort Myers","state":"Florida","postalCode":"33906","url":"https://redcross.org"},
{"name":"Gerlach, O'Reilly and Haag","address":"50 Warbler Road","city":"Albuquerque","state":"New Mexico","postalCode":"87180","url":"http://google.de"},
{"name":"Conroy Inc","address":"5740 Butterfield Court","city":"Katy","state":"Texas","postalCode":"77493","url":"https://over-blog.com"},
{"name":"Simonis, Price and Labadie","address":"7 Kings Parkway","city":"New York City","state":"New York","postalCode":"10105","url":"https://stanford.edu"},
{"name":"Langworth-Kuphal","address":"417 Grayhawk Lane","city":"Charleston","state":"West Virginia","postalCode":"25326","url":"http://amazon.com"},
{"name":"Keeling-Koch","address":"6 Tennyson Terrace","city":"Fort Wayne","state":"Indiana","postalCode":"46805","url":"https://deviantart.com"},
{"name":"Blick-Wolf","address":"6706 Park Meadow Center","city":"Seminole","state":"Florida","postalCode":"34642","url":"https://clickbank.net"},
{"name":"Pouros Inc","address":"148 Old Shore Trail","city":"Abilene","state":"Texas","postalCode":"79605","url":"https://vkontakte.ru"},
{"name":"Bednar-O'Hara","address":"12 Continental Hill","city":"Baltimore","state":"Maryland","postalCode":"21281","url":"http://t.co"},
{"name":"MacGyver, Hudson and Quitzon","address":"06438 Sachs Circle","city":"Bellevue","state":"Washington","postalCode":"98008","url":"http://cam.ac.uk"},
{"name":"Auer and Sons","address":"7 Northridge Terrace","city":"Aurora","state":"Colorado","postalCode":"80045","url":"http://ameblo.jp"},
{"name":"Rice, Hermann and Moen","address":"01447 Derek Park","city":"Houston","state":"Texas","postalCode":"77218","url":"http://reference.com"},
{"name":"Bradtke-Turcotte","address":"5606 Stephen Park","city":"San Antonio","state":"Texas","postalCode":"78230","url":"http://w3.org"},
{"name":"Wilderman-Buckridge","address":"347 Village Crossing","city":"Texarkana","state":"Texas","postalCode":"75507","url":"https://usa.gov"},
{"name":"D'Amore, Quigley and Stark","address":"14 Grayhawk Road","city":"Phoenix","state":"Arizona","postalCode":"85030","url":"https://cbsnews.com"},
{"name":"Murazik, Considine and Rohan","address":"11 Luster Alley","city":"Madison","state":"Wisconsin","postalCode":"53705","url":"https://vinaora.com"},
{"name":"Bartell Group","address":"3 Spaight Parkway","city":"El Paso","state":"Texas","postalCode":"79934","url":"http://dyndns.org"},
{"name":"Rippin, Daniel and Goldner","address":"636 Meadow Vale Drive","city":"Arlington","state":"Virginia","postalCode":"22217","url":"https://smh.com.au"},
{"name":"Bahringer Inc","address":"886 Anthes Trail","city":"Punta Gorda","state":"Florida","postalCode":"33982","url":"https://blinklist.com"},
{"name":"Abbott-Johnson","address":"22610 Westridge Center","city":"Arlington","state":"Virginia","postalCode":"22244","url":"http://cbc.ca"},
{"name":"Reinger LLC","address":"4639 Ruskin Junction","city":"Waco","state":"Texas","postalCode":"76705","url":"http://gnu.org"},
{"name":"Barrows, Crist and Rutherford","address":"46 Jenna Place","city":"Lynn","state":"Massachusetts","postalCode":"01905","url":"http://newyorker.com"},
{"name":"Schneider LLC","address":"56450 Schmedeman Crossing","city":"Colorado Springs","state":"Colorado","postalCode":"80945","url":"https://blog.com"},
{"name":"Langosh, Cassin and Lind","address":"881 Elka Parkway","city":"Reno","state":"Nevada","postalCode":"89550","url":"https://arizona.edu"},
{"name":"Bartoletti, Larson and Brown","address":"88 Evergreen Pass","city":"Scranton","state":"Pennsylvania","postalCode":"18505","url":"http://wikipedia.org"},
{"name":"Wisoky-Wiza","address":"1454 Chive Trail","city":"Newport News","state":"Virginia","postalCode":"23612","url":"https://usda.gov"},
{"name":"Thompson, Williamson and Vandervort","address":"130 2nd Drive","city":"Chula Vista","state":"California","postalCode":"91913","url":"https://issuu.com"},
{"name":"Feil-Toy","address":"96648 Steensland Park","city":"Saginaw","state":"Michigan","postalCode":"48604","url":"http://economist.com"},
{"name":"Kuvalis-Bradtke","address":"6878 Barnett Place","city":"San Diego","state":"California","postalCode":"92127","url":"https://princeton.edu"},
{"name":"Wisoky, Boehm and Nikolaus","address":"8933 Graedel Point","city":"Albany","state":"New York","postalCode":"12242","url":"http://craigslist.org"},
{"name":"Davis Inc","address":"715 Blue Bill Park Pass","city":"Galveston","state":"Texas","postalCode":"77554","url":"http://alibaba.com"},
{"name":"Nolan Inc","address":"6096 Amoth Point","city":"Minneapolis","state":"Minnesota","postalCode":"55428","url":"https://jimdo.com"},
{"name":"Gutmann-Wiza","address":"7 Saint Paul Alley","city":"Hialeah","state":"Florida","postalCode":"33018","url":"http://xinhuanet.com"},
{"name":"Wolf, Weber and Gerlach","address":"22 Tennyson Terrace","city":"Jamaica","state":"New York","postalCode":"11407","url":"https://ow.ly"},
{"name":"Beatty, Ward and Goyette","address":"0 Hovde Way","city":"North Little Rock","state":"Arkansas","postalCode":"72199","url":"http://google.co.jp"},
{"name":"O'Conner-Langosh","address":"645 Chive Pass","city":"El Paso","state":"Texas","postalCode":"88541","url":"http://tamu.edu"},
{"name":"Cummerata LLC","address":"979 Brown Place","city":"Portsmouth","state":"Virginia","postalCode":"23705","url":"https://lycos.com"},
{"name":"Heathcote, Wolf and Rempel","address":"50 Pine View Crossing","city":"New Haven","state":"Connecticut","postalCode":"06538","url":"https://va.gov"},
{"name":"Kutch-Glover","address":"63348 Myrtle Trail","city":"Corona","state":"California","postalCode":"92878","url":"https://berkeley.edu"},
{"name":"Kshlerin Group","address":"6 Almo Plaza","city":"Mc Keesport","state":"Pennsylvania","postalCode":"15134","url":"http://chicagotribune.com"},
{"name":"Kuhn-Muller","address":"9 Express Parkway","city":"Birmingham","state":"Alabama","postalCode":"35231","url":"https://w3.org"},
{"name":"Howe-Bins","address":"85841 Dapin Street","city":"Kansas City","state":"Missouri","postalCode":"64144","url":"https://narod.ru"},
{"name":"Pagac, Conn and Walter","address":"7 Ilene Court","city":"Fort Lauderdale","state":"Florida","postalCode":"33330","url":"https://samsung.com"},
{"name":"Gutmann, Parker and Morissette","address":"02217 Kenwood Alley","city":"Dallas","state":"Texas","postalCode":"75277","url":"http://squidoo.com"},
{"name":"Conroy and Sons","address":"3 Johnson Point","city":"Atlanta","state":"Georgia","postalCode":"30343","url":"http://usnews.com"},
{"name":"Bayer Inc","address":"84291 Parkside Hill","city":"Montgomery","state":"Alabama","postalCode":"36177","url":"http://earthlink.net"},
{"name":"Schmeler-Hermann","address":"43390 Hazelcrest Road","city":"Rochester","state":"New York","postalCode":"14614","url":"http://dagondesign.com"},
{"name":"Langosh, Boyer and Waelchi","address":"1 Gale Parkway","city":"Newark","state":"New Jersey","postalCode":"07188","url":"http://msu.edu"},
{"name":"Terry Group","address":"7 Victoria Plaza","city":"San Jose","state":"California","postalCode":"95138","url":"http://blog.com"},
{"name":"Conroy, Hammes and Thiel","address":"98790 Waxwing Park","city":"Charleston","state":"South Carolina","postalCode":"29424","url":"http://biglobe.ne.jp"},
{"name":"Brekke Inc","address":"49 Valley Edge Parkway","city":"Ventura","state":"California","postalCode":"93005","url":"https://columbia.edu"},
{"name":"Johns-Walsh","address":"35 Oxford Drive","city":"Hialeah","state":"Florida","postalCode":"33013","url":"http://marketwatch.com"},
{"name":"Hansen Group","address":"248 Kipling Plaza","city":"Corpus Christi","state":"Texas","postalCode":"78410","url":"https://plala.or.jp"},
{"name":"Tillman Group","address":"80345 Brown Way","city":"Mesa","state":"Arizona","postalCode":"85210","url":"http://craigslist.org"},
{"name":"Mertz, Pouros and Jacobs","address":"76 Forster Avenue","city":"Metairie","state":"Louisiana","postalCode":"70005","url":"https://google.fr"},
{"name":"Reilly, Herman and Johnston","address":"41008 Grasskamp Parkway","city":"Omaha","state":"Nebraska","postalCode":"68179","url":"https://nationalgeographic.com"},
{"name":"Weissnat and Sons","address":"54 Milwaukee Hill","city":"Saint Cloud","state":"Minnesota","postalCode":"56398","url":"https://cdbaby.com"},
{"name":"Thompson Group","address":"1 Surrey Way","city":"Fort Worth","state":"Texas","postalCode":"76178","url":"https://infoseek.co.jp"},
{"name":"Stehr-Kessler","address":"44 Bay Crossing","city":"Fort Worth","state":"Texas","postalCode":"76105","url":"http://aboutads.info"},
{"name":"Stracke and Sons","address":"290 Rowland Terrace","city":"Milwaukee","state":"Wisconsin","postalCode":"53277","url":"http://feedburner.com"},
{"name":"Block-Christiansen","address":"70953 Barby Park","city":"Wichita","state":"Kansas","postalCode":"67230","url":"http://nsw.gov.au"},
{"name":"Jaskolski, Swift and King","address":"1441 Anniversary Park","city":"Naples","state":"Florida","postalCode":"34114","url":"https://phoca.cz"},
{"name":"Funk-Gibson","address":"30505 Paget Avenue","city":"Valdosta","state":"Georgia","postalCode":"31605","url":"http://goo.ne.jp"},
{"name":"Von-Howe","address":"814 Comanche Road","city":"Erie","state":"Pennsylvania","postalCode":"16522","url":"http://twitpic.com"},
{"name":"Runte-Pacocha","address":"584 Delaware Drive","city":"Hollywood","state":"Florida","postalCode":"33028","url":"https://zimbio.com"},
{"name":"Jast-Upton","address":"169 Messerschmidt Avenue","city":"Boca Raton","state":"Florida","postalCode":"33499","url":"https://npr.org"},
{"name":"Crona, Krajcik and Weber","address":"44 Scofield Park","city":"Muncie","state":"Indiana","postalCode":"47306","url":"http://cornell.edu"},
{"name":"Bayer, Senger and Block","address":"2181 Rieder Alley","city":"Pasadena","state":"California","postalCode":"91199","url":"https://princeton.edu"},
{"name":"Rodriguez-Abbott","address":"6 Rieder Plaza","city":"Sacramento","state":"California","postalCode":"95894","url":"https://unesco.org"},
{"name":"Satterfield, Muller and Prohaska","address":"7 Annamark Center","city":"Pasadena","state":"California","postalCode":"91131","url":"https://github.com"},
{"name":"Bode Inc","address":"32333 Milwaukee Way","city":"Houston","state":"Texas","postalCode":"77085","url":"https://123-reg.co.uk"},
{"name":"Larson and Sons","address":"050 Rigney Point","city":"Seattle","state":"Washington","postalCode":"98140","url":"http://live.com"},
{"name":"Cruickshank and Sons","address":"4436 Brickson Park Plaza","city":"Omaha","state":"Nebraska","postalCode":"68117","url":"https://cisco.com"},
{"name":"Leffler and Sons","address":"8 Roth Hill","city":"Torrance","state":"California","postalCode":"90510","url":"https://amazon.com"},
{"name":"Medhurst-Barrows","address":"8 Sloan Lane","city":"Miami","state":"Florida","postalCode":"33196","url":"http://shinystat.com"},
{"name":"Torp Inc","address":"63750 Melody Lane","city":"Sacramento","state":"California","postalCode":"95818","url":"http://abc.net.au"},
{"name":"Durgan, Kshlerin and Rice","address":"85 Pleasure Parkway","city":"Sacramento","state":"California","postalCode":"94273","url":"http://domainmarket.com"}]